address,house_committee_id,jurisdiction,jurisdiction_source,minority_rss_url,minority_url,name,phone,rss_url,senate_committee_id,sub_address,sub_name,sub_phone,sub_thomas_id,sub_wikipedia,thomas_id,type,url,wikipedia
"1301 LHOB; Washington, DC 20515-6001",AG,"The House Committee on Agriculture has jurisdiction over federal agriculture policy and oversight of some federal agencies, and it can recommend funding appropriations for various governmental agencies, programs, and activities, as defined by House rules.",http://en.wikipedia.org/wiki/House_Committee_on_Agriculture,http://democrats.agriculture.house.gov/Rss.aspx?GroupID=1,http://democrats.agriculture.house.gov/,House Committee on Agriculture,(202) 225-2171,http://agriculture.house.gov/rss.xml,,"1301 LHOB; Washington, DC 20515",Conservation and Forestry,(202) 225-2171,15,,HSAG,house,http://agriculture.house.gov/,
"1301 LHOB; Washington, DC 20515-6001",AG,"The House Committee on Agriculture has jurisdiction over federal agriculture policy and oversight of some federal agencies, and it can recommend funding appropriations for various governmental agencies, programs, and activities, as defined by House rules.",http://en.wikipedia.org/wiki/House_Committee_on_Agriculture,http://democrats.agriculture.house.gov/Rss.aspx?GroupID=1,http://democrats.agriculture.house.gov/,House Committee on Agriculture,(202) 225-2171,http://agriculture.house.gov/rss.xml,,"1301 LHOB; Washington, DC 20515","Commodity Exchanges, Energy, and Credit",(202) 225-2171,22,,HSAG,house,http://agriculture.house.gov/,
"1301 LHOB; Washington, DC 20515-6001",AG,"The House Committee on Agriculture has jurisdiction over federal agriculture policy and oversight of some federal agencies, and it can recommend funding appropriations for various governmental agencies, programs, and activities, as defined by House rules.",http://en.wikipedia.org/wiki/House_Committee_on_Agriculture,http://democrats.agriculture.house.gov/Rss.aspx?GroupID=1,http://democrats.agriculture.house.gov/,House Committee on Agriculture,(202) 225-2171,http://agriculture.house.gov/rss.xml,,"1301 LHOB; Washington, DC 20515",General Farm Commodities and Risk Management,(202) 225-2171,16,,HSAG,house,http://agriculture.house.gov/,
"1301 LHOB; Washington, DC 20515-6001",AG,"The House Committee on Agriculture has jurisdiction over federal agriculture policy and oversight of some federal agencies, and it can recommend funding appropriations for various governmental agencies, programs, and activities, as defined by House rules.",http://en.wikipedia.org/wiki/House_Committee_on_Agriculture,http://democrats.agriculture.house.gov/Rss.aspx?GroupID=1,http://democrats.agriculture.house.gov/,House Committee on Agriculture,(202) 225-2171,http://agriculture.house.gov/rss.xml,,"1301 LHOB; Washington, DC 20515",Livestock and Foreign Agriculture,(202) 225-2171,29,,HSAG,house,http://agriculture.house.gov/,
"1301 LHOB; Washington, DC 20515-6001",AG,"The House Committee on Agriculture has jurisdiction over federal agriculture policy and oversight of some federal agencies, and it can recommend funding appropriations for various governmental agencies, programs, and activities, as defined by House rules.",http://en.wikipedia.org/wiki/House_Committee_on_Agriculture,http://democrats.agriculture.house.gov/Rss.aspx?GroupID=1,http://democrats.agriculture.house.gov/,House Committee on Agriculture,(202) 225-2171,http://agriculture.house.gov/rss.xml,,"1301 LHOB; Washington, DC 20515","Biotechnology, Horticulture, and Research",(202) 225-2171,14,,HSAG,house,http://agriculture.house.gov/,
"1301 LHOB; Washington, DC 20515-6001",AG,"The House Committee on Agriculture has jurisdiction over federal agriculture policy and oversight of some federal agencies, and it can recommend funding appropriations for various governmental agencies, programs, and activities, as defined by House rules.",http://en.wikipedia.org/wiki/House_Committee_on_Agriculture,http://democrats.agriculture.house.gov/Rss.aspx?GroupID=1,http://democrats.agriculture.house.gov/,House Committee on Agriculture,(202) 225-2171,http://agriculture.house.gov/rss.xml,,"1301 LHOB; Washington, DC 20515",Nutrition,(202) 225-2171,03,,HSAG,house,http://agriculture.house.gov/,
"H305 CAPITOL; Washington, DC 20515-6015",AP,"The House Committee on Appropriations is responsible for setting specific expenditures of money by the government of the United States. As such, it is one of the most powerful of the committees, and its members are seen as influential. The bills passed by the committee are called appropriations bills.",http://en.wikipedia.org/wiki/House_Committee_on_Appropriations,http://democrats.appropriations.house.gov/rss.xml,http://democrats.appropriations.house.gov,House Committee on Appropriations,(202) 225-2771,http://appropriations.house.gov/news/rss.aspx,,"2362A RHOB; Washington, DC 20515","Agriculture, Rural Development, Food and Drug Administration, and Related Agencies",(202) 225-2638,01,,HSAP,house,http://appropriations.house.gov/,
"H305 CAPITOL; Washington, DC 20515-6015",AP,"The House Committee on Appropriations is responsible for setting specific expenditures of money by the government of the United States. As such, it is one of the most powerful of the committees, and its members are seen as influential. The bills passed by the committee are called appropriations bills.",http://en.wikipedia.org/wiki/House_Committee_on_Appropriations,http://democrats.appropriations.house.gov/rss.xml,http://democrats.appropriations.house.gov,House Committee on Appropriations,(202) 225-2771,http://appropriations.house.gov/news/rss.aspx,,"H310 CAPITOL; Washington, DC 20515","Commerce, Justice, Science, and Related Agencies",(202) 225-3351,19,,HSAP,house,http://appropriations.house.gov/,
"H305 CAPITOL; Washington, DC 20515-6015",AP,"The House Committee on Appropriations is responsible for setting specific expenditures of money by the government of the United States. As such, it is one of the most powerful of the committees, and its members are seen as influential. The bills passed by the committee are called appropriations bills.",http://en.wikipedia.org/wiki/House_Committee_on_Appropriations,http://democrats.appropriations.house.gov/rss.xml,http://democrats.appropriations.house.gov,House Committee on Appropriations,(202) 225-2771,http://appropriations.house.gov/news/rss.aspx,,"H405 CAPITOL; Washington, DC 20515",Defense,(202) 225-2847,02,,HSAP,house,http://appropriations.house.gov/,
"H305 CAPITOL; Washington, DC 20515-6015",AP,"The House Committee on Appropriations is responsible for setting specific expenditures of money by the government of the United States. As such, it is one of the most powerful of the committees, and its members are seen as influential. The bills passed by the committee are called appropriations bills.",http://en.wikipedia.org/wiki/House_Committee_on_Appropriations,http://democrats.appropriations.house.gov/rss.xml,http://democrats.appropriations.house.gov,House Committee on Appropriations,(202) 225-2771,http://appropriations.house.gov/news/rss.aspx,,"2362B RHOB; Washington, DC 20515","Energy and Water Development, and Related Agencies",(202) 225-3421,10,,HSAP,house,http://appropriations.house.gov/,
"H305 CAPITOL; Washington, DC 20515-6015",AP,"The House Committee on Appropriations is responsible for setting specific expenditures of money by the government of the United States. As such, it is one of the most powerful of the committees, and its members are seen as influential. The bills passed by the committee are called appropriations bills.",http://en.wikipedia.org/wiki/House_Committee_on_Appropriations,http://democrats.appropriations.house.gov/rss.xml,http://democrats.appropriations.house.gov,House Committee on Appropriations,(202) 225-2771,http://appropriations.house.gov/news/rss.aspx,,"2000 RHOB; Washington, DC 20515",Financial Services and General Government,(202) 225-7245,23,,HSAP,house,http://appropriations.house.gov/,
"H305 CAPITOL; Washington, DC 20515-6015",AP,"The House Committee on Appropriations is responsible for setting specific expenditures of money by the government of the United States. As such, it is one of the most powerful of the committees, and its members are seen as influential. The bills passed by the committee are called appropriations bills.",http://en.wikipedia.org/wiki/House_Committee_on_Appropriations,http://democrats.appropriations.house.gov/rss.xml,http://democrats.appropriations.house.gov,House Committee on Appropriations,(202) 225-2771,http://appropriations.house.gov/news/rss.aspx,,"2006 RHOB; Washington, DC 20515",Homeland Security,(202) 225-5834,15,,HSAP,house,http://appropriations.house.gov/,
"H305 CAPITOL; Washington, DC 20515-6015",AP,"The House Committee on Appropriations is responsible for setting specific expenditures of money by the government of the United States. As such, it is one of the most powerful of the committees, and its members are seen as influential. The bills passed by the committee are called appropriations bills.",http://en.wikipedia.org/wiki/House_Committee_on_Appropriations,http://democrats.appropriations.house.gov/rss.xml,http://democrats.appropriations.house.gov,House Committee on Appropriations,(202) 225-2771,http://appropriations.house.gov/news/rss.aspx,,"2007 RHOB; Washington, DC 20515","Interior, Environment, and Related Agencies",(202) 225-3081,06,,HSAP,house,http://appropriations.house.gov/,
"H305 CAPITOL; Washington, DC 20515-6015",AP,"The House Committee on Appropriations is responsible for setting specific expenditures of money by the government of the United States. As such, it is one of the most powerful of the committees, and its members are seen as influential. The bills passed by the committee are called appropriations bills.",http://en.wikipedia.org/wiki/House_Committee_on_Appropriations,http://democrats.appropriations.house.gov/rss.xml,http://democrats.appropriations.house.gov,House Committee on Appropriations,(202) 225-2771,http://appropriations.house.gov/news/rss.aspx,,"2358B RHOB; Washington, DC 20515","Labor, Health and Human Services, Education, and Related Agencies",(202) 225-3508,07,,HSAP,house,http://appropriations.house.gov/,
"H305 CAPITOL; Washington, DC 20515-6015",AP,"The House Committee on Appropriations is responsible for setting specific expenditures of money by the government of the United States. As such, it is one of the most powerful of the committees, and its members are seen as influential. The bills passed by the committee are called appropriations bills.",http://en.wikipedia.org/wiki/House_Committee_on_Appropriations,http://democrats.appropriations.house.gov/rss.xml,http://democrats.appropriations.house.gov,House Committee on Appropriations,(202) 225-2771,http://appropriations.house.gov/news/rss.aspx,,"HT2 CAPITOL; Washington, DC 20515",Legislative Branch,(202) 226-7252,24,,HSAP,house,http://appropriations.house.gov/,
"H305 CAPITOL; Washington, DC 20515-6015",AP,"The House Committee on Appropriations is responsible for setting specific expenditures of money by the government of the United States. As such, it is one of the most powerful of the committees, and its members are seen as influential. The bills passed by the committee are called appropriations bills.",http://en.wikipedia.org/wiki/House_Committee_on_Appropriations,http://democrats.appropriations.house.gov/rss.xml,http://democrats.appropriations.house.gov,House Committee on Appropriations,(202) 225-2771,http://appropriations.house.gov/news/rss.aspx,,"HVC227 CAPITOL; Washington, DC 20515","Military Construction, Veterans Affairs, and Related Agencies",(202) 225-3047,18,,HSAP,house,http://appropriations.house.gov/,
"H305 CAPITOL; Washington, DC 20515-6015",AP,"The House Committee on Appropriations is responsible for setting specific expenditures of money by the government of the United States. As such, it is one of the most powerful of the committees, and its members are seen as influential. The bills passed by the committee are called appropriations bills.",http://en.wikipedia.org/wiki/House_Committee_on_Appropriations,http://democrats.appropriations.house.gov/rss.xml,http://democrats.appropriations.house.gov,House Committee on Appropriations,(202) 225-2771,http://appropriations.house.gov/news/rss.aspx,,"HT2 CAPITOL; Washington, DC 20515","State, Foreign Operations, and Related Programs",(202) 225-2041,04,,HSAP,house,http://appropriations.house.gov/,
"H305 CAPITOL; Washington, DC 20515-6015",AP,"The House Committee on Appropriations is responsible for setting specific expenditures of money by the government of the United States. As such, it is one of the most powerful of the committees, and its members are seen as influential. The bills passed by the committee are called appropriations bills.",http://en.wikipedia.org/wiki/House_Committee_on_Appropriations,http://democrats.appropriations.house.gov/rss.xml,http://democrats.appropriations.house.gov,House Committee on Appropriations,(202) 225-2771,http://appropriations.house.gov/news/rss.aspx,,"2358A RHOB; Washington, DC 20515","Transportation, and Housing and Urban Development, and Related Agencies",(202) 225-2141,20,,HSAP,house,http://appropriations.house.gov/,
"2216 RHOB; Washington, DC 20515-6035",AS,"The House Committee on Armed Services has jurisdiction over defense policy generally, ongoing military operations, the organization and reform of the Department of Defense and Department of Energy, counter-drug programs, acquisition and industrial base policy, technology transfer and export controls, joint interoperability, the Cooperative Threat Reduction program, Department of Energy nonproliferation programs, and detainee affairs and policy.",http://armedservices.house.gov/index.cfm/jurisdiction,http://democrats.armedservices.house.gov/index.cfm/rss/feed,http://democrats.armedservices.house.gov/,House Committee on Armed Services,(202) 225-4151,http://armedservices.house.gov/index.cfm/rss/feed,,"2340 RHOB; Washington, DC 20515",Tactical Air and Land Forces,(202) 225-4440,25,,HSAS,house,http://armedservices.house.gov/,
"2216 RHOB; Washington, DC 20515-6035",AS,"The House Committee on Armed Services has jurisdiction over defense policy generally, ongoing military operations, the organization and reform of the Department of Defense and Department of Energy, counter-drug programs, acquisition and industrial base policy, technology transfer and export controls, joint interoperability, the Cooperative Threat Reduction program, Department of Energy nonproliferation programs, and detainee affairs and policy.",http://armedservices.house.gov/index.cfm/jurisdiction,http://democrats.armedservices.house.gov/index.cfm/rss/feed,http://democrats.armedservices.house.gov/,House Committee on Armed Services,(202) 225-4151,http://armedservices.house.gov/index.cfm/rss/feed,,"2340 RHOB; Washington, DC 20515",Military Personnel,(202) 225-7560,02,,HSAS,house,http://armedservices.house.gov/,
"2216 RHOB; Washington, DC 20515-6035",AS,"The House Committee on Armed Services has jurisdiction over defense policy generally, ongoing military operations, the organization and reform of the Department of Defense and Department of Energy, counter-drug programs, acquisition and industrial base policy, technology transfer and export controls, joint interoperability, the Cooperative Threat Reduction program, Department of Energy nonproliferation programs, and detainee affairs and policy.",http://armedservices.house.gov/index.cfm/jurisdiction,http://democrats.armedservices.house.gov/index.cfm/rss/feed,http://democrats.armedservices.house.gov/,House Committee on Armed Services,(202) 225-4151,http://armedservices.house.gov/index.cfm/rss/feed,,"2119 RHOB; Washington, DC 20515",Oversight and Investigations,(202) 226-5048,06,,HSAS,house,http://armedservices.house.gov/,
"2216 RHOB; Washington, DC 20515-6035",AS,"The House Committee on Armed Services has jurisdiction over defense policy generally, ongoing military operations, the organization and reform of the Department of Defense and Department of Energy, counter-drug programs, acquisition and industrial base policy, technology transfer and export controls, joint interoperability, the Cooperative Threat Reduction program, Department of Energy nonproliferation programs, and detainee affairs and policy.",http://armedservices.house.gov/index.cfm/jurisdiction,http://democrats.armedservices.house.gov/index.cfm/rss/feed,http://democrats.armedservices.house.gov/,House Committee on Armed Services,(202) 225-4151,http://armedservices.house.gov/index.cfm/rss/feed,,"2340 RHOB; Washington, DC 20515",Readiness,(202) 226-8979,03,,HSAS,house,http://armedservices.house.gov/,
"2216 RHOB; Washington, DC 20515-6035",AS,"The House Committee on Armed Services has jurisdiction over defense policy generally, ongoing military operations, the organization and reform of the Department of Defense and Department of Energy, counter-drug programs, acquisition and industrial base policy, technology transfer and export controls, joint interoperability, the Cooperative Threat Reduction program, Department of Energy nonproliferation programs, and detainee affairs and policy.",http://armedservices.house.gov/index.cfm/jurisdiction,http://democrats.armedservices.house.gov/index.cfm/rss/feed,http://democrats.armedservices.house.gov/,House Committee on Armed Services,(202) 225-4151,http://armedservices.house.gov/index.cfm/rss/feed,,"2340 RHOB; Washington, DC 20515",Seapower and Projection Forces,(202) 226-2211,28,,HSAS,house,http://armedservices.house.gov/,
"2216 RHOB; Washington, DC 20515-6035",AS,"The House Committee on Armed Services has jurisdiction over defense policy generally, ongoing military operations, the organization and reform of the Department of Defense and Department of Energy, counter-drug programs, acquisition and industrial base policy, technology transfer and export controls, joint interoperability, the Cooperative Threat Reduction program, Department of Energy nonproliferation programs, and detainee affairs and policy.",http://armedservices.house.gov/index.cfm/jurisdiction,http://democrats.armedservices.house.gov/index.cfm/rss/feed,http://democrats.armedservices.house.gov/,House Committee on Armed Services,(202) 225-4151,http://armedservices.house.gov/index.cfm/rss/feed,,"2340 RHOB; Washington, DC 20515",Strategic Forces,(202) 225-1967,29,,HSAS,house,http://armedservices.house.gov/,
"2216 RHOB; Washington, DC 20515-6035",AS,"The House Committee on Armed Services has jurisdiction over defense policy generally, ongoing military operations, the organization and reform of the Department of Defense and Department of Energy, counter-drug programs, acquisition and industrial base policy, technology transfer and export controls, joint interoperability, the Cooperative Threat Reduction program, Department of Energy nonproliferation programs, and detainee affairs and policy.",http://armedservices.house.gov/index.cfm/jurisdiction,http://democrats.armedservices.house.gov/index.cfm/rss/feed,http://democrats.armedservices.house.gov/,House Committee on Armed Services,(202) 225-4151,http://armedservices.house.gov/index.cfm/rss/feed,,"2340 RHOB; Washington, DC 20515",Emerging Threats and Capabilities,(202) 226-2843,26,,HSAS,house,http://armedservices.house.gov/,
"2129 RHOB; Washington, DC 20515-6050",BA,"The House Financial Services Committee has jurisdiction over issues pertaining to the economy, the banking system, housing, insurance, and securities and exchanges. Additionally, the Committee also has jurisdiction over monetary policy, international finance, international monetary organizations, and efforts to combat terrorist financing.",http://financialservices.house.gov/about/,http://democrats.financialservices.house.gov/Rss.aspx?GroupID=1,http://democrats.financialservices.house.gov/,House Committee on Financial Services,(202) 225-7502,http://financialservices.house.gov/news/rss.aspx,,"2129 RHOB; Washington, DC 20515",Capital Markets and Government Sponsored Enterprises,(202) 225-7502,16,,HSBA,house,http://financialservices.house.gov/,
"2129 RHOB; Washington, DC 20515-6050",BA,"The House Financial Services Committee has jurisdiction over issues pertaining to the economy, the banking system, housing, insurance, and securities and exchanges. Additionally, the Committee also has jurisdiction over monetary policy, international finance, international monetary organizations, and efforts to combat terrorist financing.",http://financialservices.house.gov/about/,http://democrats.financialservices.house.gov/Rss.aspx?GroupID=1,http://democrats.financialservices.house.gov/,House Committee on Financial Services,(202) 225-7502,http://financialservices.house.gov/news/rss.aspx,,"2129 RHOB; Washington, DC 20515",Financial Institutions and Consumer Credit,(202) 225-7502,15,,HSBA,house,http://financialservices.house.gov/,
"2129 RHOB; Washington, DC 20515-6050",BA,"The House Financial Services Committee has jurisdiction over issues pertaining to the economy, the banking system, housing, insurance, and securities and exchanges. Additionally, the Committee also has jurisdiction over monetary policy, international finance, international monetary organizations, and efforts to combat terrorist financing.",http://financialservices.house.gov/about/,http://democrats.financialservices.house.gov/Rss.aspx?GroupID=1,http://democrats.financialservices.house.gov/,House Committee on Financial Services,(202) 225-7502,http://financialservices.house.gov/news/rss.aspx,,"2129 RHOB; Washington, DC 20515",Housing and Insurance,(202) 225-7502,04,,HSBA,house,http://financialservices.house.gov/,
"2129 RHOB; Washington, DC 20515-6050",BA,"The House Financial Services Committee has jurisdiction over issues pertaining to the economy, the banking system, housing, insurance, and securities and exchanges. Additionally, the Committee also has jurisdiction over monetary policy, international finance, international monetary organizations, and efforts to combat terrorist financing.",http://financialservices.house.gov/about/,http://democrats.financialservices.house.gov/Rss.aspx?GroupID=1,http://democrats.financialservices.house.gov/,House Committee on Financial Services,(202) 225-7502,http://financialservices.house.gov/news/rss.aspx,,"2129 RHOB; Washington, DC 20515",Monetary Policy and Trade,(202) 225-7502,20,,HSBA,house,http://financialservices.house.gov/,
"2129 RHOB; Washington, DC 20515-6050",BA,"The House Financial Services Committee has jurisdiction over issues pertaining to the economy, the banking system, housing, insurance, and securities and exchanges. Additionally, the Committee also has jurisdiction over monetary policy, international finance, international monetary organizations, and efforts to combat terrorist financing.",http://financialservices.house.gov/about/,http://democrats.financialservices.house.gov/Rss.aspx?GroupID=1,http://democrats.financialservices.house.gov/,House Committee on Financial Services,(202) 225-7502,http://financialservices.house.gov/news/rss.aspx,,"2129 RHOB; Washington, DC 20515",Oversight and Investigations,(202) 225-7502,09,,HSBA,house,http://financialservices.house.gov/,
"B234 LHOB; Washington, DC 20515-6065",BU,"The House Committee on the Budget has responsibilities under the following categories: the budget resolution, reconciliation, budget process reform, oversight of the Congressional Budget Office, revisions of allocations and adjustments, and scorekeeping.",http://budget.house.gov/about/,http://democrats.budget.house.gov/rss.xml,http://democrats.budget.house.gov/,House Committee on the Budget,(202) 226-7270,http://budget.house.gov/news/rss.aspx,,,,,,,HSBU,house,http://budget.house.gov/,
"2176 RHOB; Washington, DC 20515-6100",ED,The House Committee on Education and the Workforce’s basic jurisdiction is over education and workforce matters generally.,http://edworkforce.house.gov/committee/committeehistory.htm,http://democrats.edworkforce.house.gov/rss.xml,http://democrats.edworkforce.house.gov/,House Committee on Education and the Workforce,(202) 225-4527,http://edworkforce.house.gov/news/rss.aspx,,"2176 RHOB; Washington, DC 20515","Early Childhood, Elementary, and Secondary Education",(202) 225-4527,14,,HSED,house,http://edworkforce.house.gov/,
"2176 RHOB; Washington, DC 20515-6100",ED,The House Committee on Education and the Workforce’s basic jurisdiction is over education and workforce matters generally.,http://edworkforce.house.gov/committee/committeehistory.htm,http://democrats.edworkforce.house.gov/rss.xml,http://democrats.edworkforce.house.gov/,House Committee on Education and the Workforce,(202) 225-4527,http://edworkforce.house.gov/news/rss.aspx,,"2176 RHOB; Washington, DC 20515","Health, Employment, Labor, and Pensions",(202) 225-4527,02,,HSED,house,http://edworkforce.house.gov/,
"2176 RHOB; Washington, DC 20515-6100",ED,The House Committee on Education and the Workforce’s basic jurisdiction is over education and workforce matters generally.,http://edworkforce.house.gov/committee/committeehistory.htm,http://democrats.edworkforce.house.gov/rss.xml,http://democrats.edworkforce.house.gov/,House Committee on Education and the Workforce,(202) 225-4527,http://edworkforce.house.gov/news/rss.aspx,,"2176 RHOB; Washington, DC 20515",Higher Education and Workforce Training,(202) 225-4527,13,,HSED,house,http://edworkforce.house.gov/,
"2176 RHOB; Washington, DC 20515-6100",ED,The House Committee on Education and the Workforce’s basic jurisdiction is over education and workforce matters generally.,http://edworkforce.house.gov/committee/committeehistory.htm,http://democrats.edworkforce.house.gov/rss.xml,http://democrats.edworkforce.house.gov/,House Committee on Education and the Workforce,(202) 225-4527,http://edworkforce.house.gov/news/rss.aspx,,"2176 RHOB; Washington, DC 20515",Workforce Protections,(202) 225-4527,10,,HSED,house,http://edworkforce.house.gov/,
"2170 RHOB; Washington, DC 20515-6128",FA,"The House Committee on Foreign Affairs considers legislation that impacts the diplomatic community, which includes the Department of State, the Agency for International Development (USAID), the Peace Corps, the United Nations, and the enforcement of the Arms Export Control Act.",http://foreignaffairs.house.gov/about,,http://democrats.foreignaffairs.house.gov/,House Committee on Foreign Affairs,(202) 225-5021,http://foreignaffairs.house.gov/rss.xml,,"5210 OFOB; Washington, DC 20515","Africa, Global Health, Global Human Rights, and International Organizations",(202) 226-7812,16,,HSFA,house,http://foreignaffairs.house.gov/,
"2170 RHOB; Washington, DC 20515-6128",FA,"The House Committee on Foreign Affairs considers legislation that impacts the diplomatic community, which includes the Department of State, the Agency for International Development (USAID), the Peace Corps, the United Nations, and the enforcement of the Arms Export Control Act.",http://foreignaffairs.house.gov/about,,http://democrats.foreignaffairs.house.gov/,House Committee on Foreign Affairs,(202) 225-5021,http://foreignaffairs.house.gov/rss.xml,,"5190 OFOB; Washington, DC 20515",Asia and the Pacific,(202) 226-7825,05,,HSFA,house,http://foreignaffairs.house.gov/,
"2170 RHOB; Washington, DC 20515-6128",FA,"The House Committee on Foreign Affairs considers legislation that impacts the diplomatic community, which includes the Department of State, the Agency for International Development (USAID), the Peace Corps, the United Nations, and the enforcement of the Arms Export Control Act.",http://foreignaffairs.house.gov/about,,http://democrats.foreignaffairs.house.gov/,House Committee on Foreign Affairs,(202) 225-5021,http://foreignaffairs.house.gov/rss.xml,,"5210 OFOB; Washington, DC 20515","Europe, Eurasia, and Emerging Threats",(202) 226-6434,14,,HSFA,house,http://foreignaffairs.house.gov/,
"2170 RHOB; Washington, DC 20515-6128",FA,"The House Committee on Foreign Affairs considers legislation that impacts the diplomatic community, which includes the Department of State, the Agency for International Development (USAID), the Peace Corps, the United Nations, and the enforcement of the Arms Export Control Act.",http://foreignaffairs.house.gov/about,,http://democrats.foreignaffairs.house.gov/,House Committee on Foreign Affairs,(202) 225-5021,http://foreignaffairs.house.gov/rss.xml,,"5100 OFOB; Washington, DC 20515","Terrorism, Nonproliferation, and Trade",(202) 226-1500,18,,HSFA,house,http://foreignaffairs.house.gov/,
"2170 RHOB; Washington, DC 20515-6128",FA,"The House Committee on Foreign Affairs considers legislation that impacts the diplomatic community, which includes the Department of State, the Agency for International Development (USAID), the Peace Corps, the United Nations, and the enforcement of the Arms Export Control Act.",http://foreignaffairs.house.gov/about,,http://democrats.foreignaffairs.house.gov/,House Committee on Foreign Affairs,(202) 225-5021,http://foreignaffairs.house.gov/rss.xml,,"5210 OFOB; Washington, DC 20515",The Middle East and North Africa,(202) 225-3345,13,,HSFA,house,http://foreignaffairs.house.gov/,
"2170 RHOB; Washington, DC 20515-6128",FA,"The House Committee on Foreign Affairs considers legislation that impacts the diplomatic community, which includes the Department of State, the Agency for International Development (USAID), the Peace Corps, the United Nations, and the enforcement of the Arms Export Control Act.",http://foreignaffairs.house.gov/about,,http://democrats.foreignaffairs.house.gov/,House Committee on Foreign Affairs,(202) 225-5021,http://foreignaffairs.house.gov/rss.xml,,"5100 OFOB; Washington, DC 20515",The Western Hemisphere,(202) 226-9980,07,,HSFA,house,http://foreignaffairs.house.gov/,
"2157 RHOB; Washington, DC 20515-6143",GO,"The Committee on Oversight and Government Reform has legislative jurisdiction over the District of Columbia, the government procurement process, federal personnel systems, the Postal Service and other oversight matters across the government.",http://oversight.house.gov/about-the-committee/,http://democrats.oversight.house.gov/rss.xml,http://democrats.oversight.house.gov/,House Committee on Oversight and Government Reform,(202) 225-5074,http://oversight.house.gov/feed/rss/,,"2157 RHOB; Washington, DC 20515",Information Technology,(202) 225-5074,25,,HSGO,house,http://oversight.house.gov/,
"2157 RHOB; Washington, DC 20515-6143",GO,"The Committee on Oversight and Government Reform has legislative jurisdiction over the District of Columbia, the government procurement process, federal personnel systems, the Postal Service and other oversight matters across the government.",http://oversight.house.gov/about-the-committee/,http://democrats.oversight.house.gov/rss.xml,http://democrats.oversight.house.gov/,House Committee on Oversight and Government Reform,(202) 225-5074,http://oversight.house.gov/feed/rss/,,"2157 RHOB; Washington, DC 20515",Government Operations,(202) 225-5074,24,,HSGO,house,http://oversight.house.gov/,
"2157 RHOB; Washington, DC 20515-6143",GO,"The Committee on Oversight and Government Reform has legislative jurisdiction over the District of Columbia, the government procurement process, federal personnel systems, the Postal Service and other oversight matters across the government.",http://oversight.house.gov/about-the-committee/,http://democrats.oversight.house.gov/rss.xml,http://democrats.oversight.house.gov/,House Committee on Oversight and Government Reform,(202) 225-5074,http://oversight.house.gov/feed/rss/,,"2157 RHOB; Washington, DC 20515",National Security,(202) 225-5074,06,,HSGO,house,http://oversight.house.gov/,
"2157 RHOB; Washington, DC 20515-6143",GO,"The Committee on Oversight and Government Reform has legislative jurisdiction over the District of Columbia, the government procurement process, federal personnel systems, the Postal Service and other oversight matters across the government.",http://oversight.house.gov/about-the-committee/,http://democrats.oversight.house.gov/rss.xml,http://democrats.oversight.house.gov/,House Committee on Oversight and Government Reform,(202) 225-5074,http://oversight.house.gov/feed/rss/,,"2157 RHOB; Washington, DC 20515","Health Care, Benefits and Administrative Rules",(202) 225-5074,27,,HSGO,house,http://oversight.house.gov/,
"2157 RHOB; Washington, DC 20515-6143",GO,"The Committee on Oversight and Government Reform has legislative jurisdiction over the District of Columbia, the government procurement process, federal personnel systems, the Postal Service and other oversight matters across the government.",http://oversight.house.gov/about-the-committee/,http://democrats.oversight.house.gov/rss.xml,http://democrats.oversight.house.gov/,House Committee on Oversight and Government Reform,(202) 225-5074,http://oversight.house.gov/feed/rss/,,"2157 RHOB; Washington, DC 20515",The Interior,(202) 225-5074,28,,HSGO,house,http://oversight.house.gov/,
"2157 RHOB; Washington, DC 20515-6143",GO,"The Committee on Oversight and Government Reform has legislative jurisdiction over the District of Columbia, the government procurement process, federal personnel systems, the Postal Service and other oversight matters across the government.",http://oversight.house.gov/about-the-committee/,http://democrats.oversight.house.gov/rss.xml,http://democrats.oversight.house.gov/,House Committee on Oversight and Government Reform,(202) 225-5074,http://oversight.house.gov/feed/rss/,,"2157 RHOB; Washington, DC 20515",Transportation and Public Assets,(202) 225-5074,29,,HSGO,house,http://oversight.house.gov/,
"1309 LHOB; Washington, DC 20515-6157",HA,The Committee on House Administration is charged with the oversight of federal elections and the day-to-day operations of the House of Representatives,http://cha.house.gov/about,http://democrats.cha.house.gov/rss.xml,http://democrats.cha.house.gov/,House Committee on House Administration,(202) 225-8281,http://cha.house.gov/rss.xml,,,,,,,HSHA,house,http://cha.house.gov/,
"176 FHOB; Washington, DC 20515-6480",HM,The Committee on Homeland Security was established in 2002 to provide Congressional oversight for the U.S. Department of Homeland Security and better protect the American people against a possible terrorist attack. ,http://homeland.house.gov/about/history-jurisdiction,,http://chsdemocrats.house.gov/,House Committee on Homeland Security,(202) 226-8417,http://homeland.house.gov/rss.xml,,"176 FHOB; Washington, DC 20515",Border and Maritime Security,(202) 226-8417,11,,HSHM,house,http://homeland.house.gov/,
"176 FHOB; Washington, DC 20515-6480",HM,The Committee on Homeland Security was established in 2002 to provide Congressional oversight for the U.S. Department of Homeland Security and better protect the American people against a possible terrorist attack. ,http://homeland.house.gov/about/history-jurisdiction,,http://chsdemocrats.house.gov/,House Committee on Homeland Security,(202) 226-8417,http://homeland.house.gov/rss.xml,,"176 FHOB; Washington, DC 20515","Emergency Preparedness, Response, and Communications",(202) 226-8417,12,,HSHM,house,http://homeland.house.gov/,
"176 FHOB; Washington, DC 20515-6480",HM,The Committee on Homeland Security was established in 2002 to provide Congressional oversight for the U.S. Department of Homeland Security and better protect the American people against a possible terrorist attack. ,http://homeland.house.gov/about/history-jurisdiction,,http://chsdemocrats.house.gov/,House Committee on Homeland Security,(202) 226-8417,http://homeland.house.gov/rss.xml,,"176 FHOB; Washington, DC 20515","Cybersecurity, Infrastructure Protection, and Security Technologies",(202) 226-8417,08,,HSHM,house,http://homeland.house.gov/,
"176 FHOB; Washington, DC 20515-6480",HM,The Committee on Homeland Security was established in 2002 to provide Congressional oversight for the U.S. Department of Homeland Security and better protect the American people against a possible terrorist attack. ,http://homeland.house.gov/about/history-jurisdiction,,http://chsdemocrats.house.gov/,House Committee on Homeland Security,(202) 226-8417,http://homeland.house.gov/rss.xml,,"176 FHOB; Washington, DC 20515",Counterterrorism and Intelligence,(202) 226-8417,05,,HSHM,house,http://homeland.house.gov/,
"176 FHOB; Washington, DC 20515-6480",HM,The Committee on Homeland Security was established in 2002 to provide Congressional oversight for the U.S. Department of Homeland Security and better protect the American people against a possible terrorist attack. ,http://homeland.house.gov/about/history-jurisdiction,,http://chsdemocrats.house.gov/,House Committee on Homeland Security,(202) 226-8417,http://homeland.house.gov/rss.xml,,"176 FHOB; Washington, DC 20515",Oversight and Management Efficiency,(202) 226-8417,09,,HSHM,house,http://homeland.house.gov/,
"176 FHOB; Washington, DC 20515-6480",HM,The Committee on Homeland Security was established in 2002 to provide Congressional oversight for the U.S. Department of Homeland Security and better protect the American people against a possible terrorist attack. ,http://homeland.house.gov/about/history-jurisdiction,,http://chsdemocrats.house.gov/,House Committee on Homeland Security,(202) 226-8417,http://homeland.house.gov/rss.xml,,"176 FHOB; Washington, DC 20515",Transportation Security,(202) 226-8417,07,,HSHM,house,http://homeland.house.gov/,
"2125 RHOB; Washington, DC 20515-6115",IF,"The Committee on Energy and Commerce, the oldest standing legislative committee in the U.S. House of Representatives, is vested with the broadest jurisdiction of any congressional authorizing committee. It has responsibility for the nation’s telecommunications, consumer protection, food and drug safety, public health research, environmental quality, energy policy, and interstate and foreign commerce. It oversees multiple cabinet-level Departments and independent agencies, including the Departments of Energy, Health and Human Services, Commerce, and Transportation, as well as the Environmental Protection Agency, the Federal Trade Commission, the Food and Drug Administration, and the Federal Communications Commission.",http://energycommerce.house.gov/about/committee-history,,http://democrats.energycommerce.house.gov/,House Committee on Energy and Commerce,(202) 225-2927,http://energycommerce.house.gov/rss.aspx,,"2125 RHOB; Washington, DC 20515","Commerce, Manufacturing, and Trade",(202) 225-2927,17,,HSIF,house,http://energycommerce.house.gov/,
"2125 RHOB; Washington, DC 20515-6115",IF,"The Committee on Energy and Commerce, the oldest standing legislative committee in the U.S. House of Representatives, is vested with the broadest jurisdiction of any congressional authorizing committee. It has responsibility for the nation’s telecommunications, consumer protection, food and drug safety, public health research, environmental quality, energy policy, and interstate and foreign commerce. It oversees multiple cabinet-level Departments and independent agencies, including the Departments of Energy, Health and Human Services, Commerce, and Transportation, as well as the Environmental Protection Agency, the Federal Trade Commission, the Food and Drug Administration, and the Federal Communications Commission.",http://energycommerce.house.gov/about/committee-history,,http://democrats.energycommerce.house.gov/,House Committee on Energy and Commerce,(202) 225-2927,http://energycommerce.house.gov/rss.aspx,,"2125 RHOB; Washington, DC 20515",Communications and Technology,(202) 225-2927,16,,HSIF,house,http://energycommerce.house.gov/,
"2125 RHOB; Washington, DC 20515-6115",IF,"The Committee on Energy and Commerce, the oldest standing legislative committee in the U.S. House of Representatives, is vested with the broadest jurisdiction of any congressional authorizing committee. It has responsibility for the nation’s telecommunications, consumer protection, food and drug safety, public health research, environmental quality, energy policy, and interstate and foreign commerce. It oversees multiple cabinet-level Departments and independent agencies, including the Departments of Energy, Health and Human Services, Commerce, and Transportation, as well as the Environmental Protection Agency, the Federal Trade Commission, the Food and Drug Administration, and the Federal Communications Commission.",http://energycommerce.house.gov/about/committee-history,,http://democrats.energycommerce.house.gov/,House Committee on Energy and Commerce,(202) 225-2927,http://energycommerce.house.gov/rss.aspx,,"2125 RHOB; Washington, DC 20515",Energy and Power,(202) 225-2927,03,,HSIF,house,http://energycommerce.house.gov/,
"2125 RHOB; Washington, DC 20515-6115",IF,"The Committee on Energy and Commerce, the oldest standing legislative committee in the U.S. House of Representatives, is vested with the broadest jurisdiction of any congressional authorizing committee. It has responsibility for the nation’s telecommunications, consumer protection, food and drug safety, public health research, environmental quality, energy policy, and interstate and foreign commerce. It oversees multiple cabinet-level Departments and independent agencies, including the Departments of Energy, Health and Human Services, Commerce, and Transportation, as well as the Environmental Protection Agency, the Federal Trade Commission, the Food and Drug Administration, and the Federal Communications Commission.",http://energycommerce.house.gov/about/committee-history,,http://democrats.energycommerce.house.gov/,House Committee on Energy and Commerce,(202) 225-2927,http://energycommerce.house.gov/rss.aspx,,"2125 RHOB; Washington, DC 20515",Health,(202) 225-2927,14,,HSIF,house,http://energycommerce.house.gov/,
"2125 RHOB; Washington, DC 20515-6115",IF,"The Committee on Energy and Commerce, the oldest standing legislative committee in the U.S. House of Representatives, is vested with the broadest jurisdiction of any congressional authorizing committee. It has responsibility for the nation’s telecommunications, consumer protection, food and drug safety, public health research, environmental quality, energy policy, and interstate and foreign commerce. It oversees multiple cabinet-level Departments and independent agencies, including the Departments of Energy, Health and Human Services, Commerce, and Transportation, as well as the Environmental Protection Agency, the Federal Trade Commission, the Food and Drug Administration, and the Federal Communications Commission.",http://energycommerce.house.gov/about/committee-history,,http://democrats.energycommerce.house.gov/,House Committee on Energy and Commerce,(202) 225-2927,http://energycommerce.house.gov/rss.aspx,,"2125 RHOB; Washington, DC 20515",Oversight and Investigations,(202) 225-2927,02,,HSIF,house,http://energycommerce.house.gov/,
"2125 RHOB; Washington, DC 20515-6115",IF,"The Committee on Energy and Commerce, the oldest standing legislative committee in the U.S. House of Representatives, is vested with the broadest jurisdiction of any congressional authorizing committee. It has responsibility for the nation’s telecommunications, consumer protection, food and drug safety, public health research, environmental quality, energy policy, and interstate and foreign commerce. It oversees multiple cabinet-level Departments and independent agencies, including the Departments of Energy, Health and Human Services, Commerce, and Transportation, as well as the Environmental Protection Agency, the Federal Trade Commission, the Food and Drug Administration, and the Federal Communications Commission.",http://energycommerce.house.gov/about/committee-history,,http://democrats.energycommerce.house.gov/,House Committee on Energy and Commerce,(202) 225-2927,http://energycommerce.house.gov/rss.aspx,,"2125 RHOB; Washington, DC 20515",Environment and the Economy,(202) 225-2927,18,,HSIF,house,http://energycommerce.house.gov/,
"1324 LHOB; Washington, DC 20515-6201",II,"The House Committee on Natural Resources considers legislation about American energy production, mineral lands and mining, fisheries and wildlife, public lands, oceans, Native Americans, irrigation and reclamation.",http://naturalresources.house.gov/about/,http://democrats.naturalresources.house.gov/rss.xml,http://democrats.naturalresources.house.gov/,House Committee on Natural Resources,(202) 225-2761,http://naturalresources.house.gov/news.xml,,"1522 LHOB; Washington, DC 20515",Energy and Mineral Resources,(202) 225-9297,06,,HSII,house,http://naturalresources.house.gov/,
"1324 LHOB; Washington, DC 20515-6201",II,"The House Committee on Natural Resources considers legislation about American energy production, mineral lands and mining, fisheries and wildlife, public lands, oceans, Native Americans, irrigation and reclamation.",http://naturalresources.house.gov/about/,http://democrats.naturalresources.house.gov/rss.xml,http://democrats.naturalresources.house.gov/,House Committee on Natural Resources,(202) 225-2761,http://naturalresources.house.gov/news.xml,,"1332 LHOB; Washington, DC 20515",Federal Lands,(202) 226-7736,10,,HSII,house,http://naturalresources.house.gov/,
"1324 LHOB; Washington, DC 20515-6201",II,"The House Committee on Natural Resources considers legislation about American energy production, mineral lands and mining, fisheries and wildlife, public lands, oceans, Native Americans, irrigation and reclamation.",http://naturalresources.house.gov/about/,http://democrats.naturalresources.house.gov/rss.xml,http://democrats.naturalresources.house.gov/,House Committee on Natural Resources,(202) 225-2761,http://naturalresources.house.gov/news.xml,,"4120 OFOB; Washington, DC 20515","Water, Power and Oceans",(202) 225-8331,13,,HSII,house,http://naturalresources.house.gov/,
"1324 LHOB; Washington, DC 20515-6201",II,"The House Committee on Natural Resources considers legislation about American energy production, mineral lands and mining, fisheries and wildlife, public lands, oceans, Native Americans, irrigation and reclamation.",http://naturalresources.house.gov/about/,http://democrats.naturalresources.house.gov/rss.xml,http://democrats.naturalresources.house.gov/,House Committee on Natural Resources,(202) 225-2761,http://naturalresources.house.gov/news.xml,,"140 CHOB; Washington, DC 20515","Fisheries, Wildlife, Oceans and Insular Affairs",(202) 226-0200,22,,HSII,house,http://naturalresources.house.gov/,
"1324 LHOB; Washington, DC 20515-6201",II,"The House Committee on Natural Resources considers legislation about American energy production, mineral lands and mining, fisheries and wildlife, public lands, oceans, Native Americans, irrigation and reclamation.",http://naturalresources.house.gov/about/,http://democrats.naturalresources.house.gov/rss.xml,http://democrats.naturalresources.house.gov/,House Committee on Natural Resources,(202) 225-2761,http://naturalresources.house.gov/news.xml,,"4450 OFOB; Washington, DC 20515","Indian, Insular and Alaska Native Affairs",(202) 226-9725,24,,HSII,house,http://naturalresources.house.gov/,
"1324 LHOB; Washington, DC 20515-6201",II,"The House Committee on Natural Resources considers legislation about American energy production, mineral lands and mining, fisheries and wildlife, public lands, oceans, Native Americans, irrigation and reclamation.",http://naturalresources.house.gov/about/,http://democrats.naturalresources.house.gov/rss.xml,http://democrats.naturalresources.house.gov/,House Committee on Natural Resources,(202) 225-2761,http://naturalresources.house.gov/news.xml,,"4170 OFOB; Washington, DC 20515",Oversight and Investigations,(202) 225-7107,15,,HSII,house,http://naturalresources.house.gov/,
"HVC304 CAPITOL; Washington, DC 20515-6415",IG,"The United States House Permanent Select Committee on Intelligence is charged with the oversight of the United States intelligence community, which includes the intelligence and intelligence related activities of 17 elements of the U.S. Government, and the Military Intelligence Program.",http://intelligence.house.gov/about/history-jurisdiction,http://democrats.intelligence.house.gov/rss.xml,http://democrats.intelligence.house.gov/,House Permanent Select Committee on Intelligence,(202) 225-4121,http://intelligence.house.gov/rss.xml,,"HVC304 CAPITOL; Washington, DC 20515",Oversight and Investigations,(202) 225-4121,09,,HLIG,house,http://intelligence.house.gov/,
"HVC304 CAPITOL; Washington, DC 20515-6415",IG,"The United States House Permanent Select Committee on Intelligence is charged with the oversight of the United States intelligence community, which includes the intelligence and intelligence related activities of 17 elements of the U.S. Government, and the Military Intelligence Program.",http://intelligence.house.gov/about/history-jurisdiction,http://democrats.intelligence.house.gov/rss.xml,http://democrats.intelligence.house.gov/,House Permanent Select Committee on Intelligence,(202) 225-4121,http://intelligence.house.gov/rss.xml,,"HVC304 CAPITOL; Washington, DC 20515",Technical and Tactical Intelligence,(202) 225-4121,05,,HLIG,house,http://intelligence.house.gov/,
"HVC304 CAPITOL; Washington, DC 20515-6415",IG,"The United States House Permanent Select Committee on Intelligence is charged with the oversight of the United States intelligence community, which includes the intelligence and intelligence related activities of 17 elements of the U.S. Government, and the Military Intelligence Program.",http://intelligence.house.gov/about/history-jurisdiction,http://democrats.intelligence.house.gov/rss.xml,http://democrats.intelligence.house.gov/,House Permanent Select Committee on Intelligence,(202) 225-4121,http://intelligence.house.gov/rss.xml,,"HVC304 CAPITOL; Washington, DC 20515","Terrorism, Human Intelligence, Analysis, and Counterintelligence",(202) 225-4121,08,,HLIG,house,http://intelligence.house.gov/,
"HVC304 CAPITOL; Washington, DC 20515-6415",IG,"The United States House Permanent Select Committee on Intelligence is charged with the oversight of the United States intelligence community, which includes the intelligence and intelligence related activities of 17 elements of the U.S. Government, and the Military Intelligence Program.",http://intelligence.house.gov/about/history-jurisdiction,http://democrats.intelligence.house.gov/rss.xml,http://democrats.intelligence.house.gov/,House Permanent Select Committee on Intelligence,(202) 225-4121,http://intelligence.house.gov/rss.xml,,"HVC304 CAPITOL; Washington, DC 20515-6415",Central Intelligence Agency,(202) 225-4121,01,,HLIG,house,http://intelligence.house.gov/,
"HVC304 CAPITOL; Washington, DC 20515-6415",IG,"The United States House Permanent Select Committee on Intelligence is charged with the oversight of the United States intelligence community, which includes the intelligence and intelligence related activities of 17 elements of the U.S. Government, and the Military Intelligence Program.",http://intelligence.house.gov/about/history-jurisdiction,http://democrats.intelligence.house.gov/rss.xml,http://democrats.intelligence.house.gov/,House Permanent Select Committee on Intelligence,(202) 225-4121,http://intelligence.house.gov/rss.xml,,"HVC304 CAPITOL; Washington, DC 20515-6415",National Security Agency and Cybersecurity,(202) 225-4121,02,,HLIG,house,http://intelligence.house.gov/,
"HVC304 CAPITOL; Washington, DC 20515-6415",IG,"The United States House Permanent Select Committee on Intelligence is charged with the oversight of the United States intelligence community, which includes the intelligence and intelligence related activities of 17 elements of the U.S. Government, and the Military Intelligence Program.",http://intelligence.house.gov/about/history-jurisdiction,http://democrats.intelligence.house.gov/rss.xml,http://democrats.intelligence.house.gov/,House Permanent Select Committee on Intelligence,(202) 225-4121,http://intelligence.house.gov/rss.xml,,"HVC304 CAPITOL; Washington, DC 20515-6415",Emerging Threats,(202) 225-4121,03,,HLIG,house,http://intelligence.house.gov/,
"HVC304 CAPITOL; Washington, DC 20515-6415",IG,"The United States House Permanent Select Committee on Intelligence is charged with the oversight of the United States intelligence community, which includes the intelligence and intelligence related activities of 17 elements of the U.S. Government, and the Military Intelligence Program.",http://intelligence.house.gov/about/history-jurisdiction,http://democrats.intelligence.house.gov/rss.xml,http://democrats.intelligence.house.gov/,House Permanent Select Committee on Intelligence,(202) 225-4121,http://intelligence.house.gov/rss.xml,,"HVC304 CAPITOL; Washington, DC 20515-6415",Department of Defense Intelligence and Overhead Architecture,(202) 225-4121,04,,HLIG,house,http://intelligence.house.gov/,
"2138 RHOB; Washington, DC 20515-6216",JU,"The Committee on the Judiciary has been called the lawyer for the House of Representatives because of its jurisdiction over matters relating to the administration of justice in federal courts, administrative bodies, and law enforcement agencies. Its infrequent but important role in impeachment proceedings has also brought it much attention.",http://judiciary.house.gov/index.cfm/about-the-committee,http://democrats.judiciary.house.gov/rss.xml,http://democrats.judiciary.house.gov/,House Committee on the Judiciary,(202) 225-3951,,,"362 FHOB; Washington, DC 20515",The Constitution and Civil Justice,(202) 225-2825,10,,HSJU,house,http://judiciary.house.gov/,
"2138 RHOB; Washington, DC 20515-6216",JU,"The Committee on the Judiciary has been called the lawyer for the House of Representatives because of its jurisdiction over matters relating to the administration of justice in federal courts, administrative bodies, and law enforcement agencies. Its infrequent but important role in impeachment proceedings has also brought it much attention.",http://judiciary.house.gov/index.cfm/about-the-committee,http://democrats.judiciary.house.gov/rss.xml,http://democrats.judiciary.house.gov/,House Committee on the Judiciary,(202) 225-3951,,,"6310 OFOB; Washington, DC 20515","Courts, Intellectual Property, and the Internet",(202) 225-5741,03,,HSJU,house,http://judiciary.house.gov/,
"2138 RHOB; Washington, DC 20515-6216",JU,"The Committee on the Judiciary has been called the lawyer for the House of Representatives because of its jurisdiction over matters relating to the administration of justice in federal courts, administrative bodies, and law enforcement agencies. Its infrequent but important role in impeachment proceedings has also brought it much attention.",http://judiciary.house.gov/index.cfm/about-the-committee,http://democrats.judiciary.house.gov/rss.xml,http://democrats.judiciary.house.gov/,House Committee on the Judiciary,(202) 225-3951,,,"6340 OFOB; Washington, DC 20515","Crime, Terrorism, Homeland Security, and Investigations",(202) 225-5727,08,,HSJU,house,http://judiciary.house.gov/,
"2138 RHOB; Washington, DC 20515-6216",JU,"The Committee on the Judiciary has been called the lawyer for the House of Representatives because of its jurisdiction over matters relating to the administration of justice in federal courts, administrative bodies, and law enforcement agencies. Its infrequent but important role in impeachment proceedings has also brought it much attention.",http://judiciary.house.gov/index.cfm/about-the-committee,http://democrats.judiciary.house.gov/rss.xml,http://democrats.judiciary.house.gov/,House Committee on the Judiciary,(202) 225-3951,,,"6320 OFOB; Washington, DC 20515",Immigration and Border Security,(202) 225-3926,01,,HSJU,house,http://judiciary.house.gov/,
"2138 RHOB; Washington, DC 20515-6216",JU,"The Committee on the Judiciary has been called the lawyer for the House of Representatives because of its jurisdiction over matters relating to the administration of justice in federal courts, administrative bodies, and law enforcement agencies. Its infrequent but important role in impeachment proceedings has also brought it much attention.",http://judiciary.house.gov/index.cfm/about-the-committee,http://democrats.judiciary.house.gov/rss.xml,http://democrats.judiciary.house.gov/,House Committee on the Judiciary,(202) 225-3951,,,"6240 OFOB; Washington, DC 20515","Regulatory Reform, Commercial, and Antitrust Law",(202) 226-7680,05,,HSJU,house,http://judiciary.house.gov/,
"2251 RHOB; Washington, DC 20515-6256",PW,"The Transportation and Infrastructure Committee has jurisdiction over all modes of transportation: aviation, maritime and waterborne transportation, highways, bridges, mass transit, and railroads.  The Committee also has jurisdiction over other aspects of our national infrastructure, such as clean water and waste water management, the transport of resources by pipeline, flood damage reduction, the management of federally owned real estate and public buildings, the development of economically depressed rural and urban areas, disaster preparedness and response, and hazardous materials transportation.",http://transportation.house.gov/about/history.htm,http://democrats.transportation.house.gov/rss.xml,http://democrats.transportation.house.gov/,House Committee on Transportation and Infrastructure,(202) 225-9446,http://transportation.house.gov/rss.xml,,"2251 RHOB; Washington, DC 20515",Aviation,(202) 226-3220,05,,HSPW,house,http://transportation.house.gov/,
"2251 RHOB; Washington, DC 20515-6256",PW,"The Transportation and Infrastructure Committee has jurisdiction over all modes of transportation: aviation, maritime and waterborne transportation, highways, bridges, mass transit, and railroads.  The Committee also has jurisdiction over other aspects of our national infrastructure, such as clean water and waste water management, the transport of resources by pipeline, flood damage reduction, the management of federally owned real estate and public buildings, the development of economically depressed rural and urban areas, disaster preparedness and response, and hazardous materials transportation.",http://transportation.house.gov/about/history.htm,http://democrats.transportation.house.gov/rss.xml,http://democrats.transportation.house.gov/,House Committee on Transportation and Infrastructure,(202) 225-9446,http://transportation.house.gov/rss.xml,,"507 FHOB; Washington, DC 20515",Coast Guard and Maritime Transportation,(202) 226-3552,07,,HSPW,house,http://transportation.house.gov/,
"2251 RHOB; Washington, DC 20515-6256",PW,"The Transportation and Infrastructure Committee has jurisdiction over all modes of transportation: aviation, maritime and waterborne transportation, highways, bridges, mass transit, and railroads.  The Committee also has jurisdiction over other aspects of our national infrastructure, such as clean water and waste water management, the transport of resources by pipeline, flood damage reduction, the management of federally owned real estate and public buildings, the development of economically depressed rural and urban areas, disaster preparedness and response, and hazardous materials transportation.",http://transportation.house.gov/about/history.htm,http://democrats.transportation.house.gov/rss.xml,http://democrats.transportation.house.gov/,House Committee on Transportation and Infrastructure,(202) 225-9446,http://transportation.house.gov/rss.xml,,"586 FHOB; Washington, DC 20515","Economic Development, Public Buildings, and Emergency Management",(202) 225-3014,13,,HSPW,house,http://transportation.house.gov/,
"2251 RHOB; Washington, DC 20515-6256",PW,"The Transportation and Infrastructure Committee has jurisdiction over all modes of transportation: aviation, maritime and waterborne transportation, highways, bridges, mass transit, and railroads.  The Committee also has jurisdiction over other aspects of our national infrastructure, such as clean water and waste water management, the transport of resources by pipeline, flood damage reduction, the management of federally owned real estate and public buildings, the development of economically depressed rural and urban areas, disaster preparedness and response, and hazardous materials transportation.",http://transportation.house.gov/about/history.htm,http://democrats.transportation.house.gov/rss.xml,http://democrats.transportation.house.gov/,House Committee on Transportation and Infrastructure,(202) 225-9446,http://transportation.house.gov/rss.xml,,"2251 RHOB; Washington, DC 20515",Highways and Transit,(202) 225-6715,12,,HSPW,house,http://transportation.house.gov/,
"2251 RHOB; Washington, DC 20515-6256",PW,"The Transportation and Infrastructure Committee has jurisdiction over all modes of transportation: aviation, maritime and waterborne transportation, highways, bridges, mass transit, and railroads.  The Committee also has jurisdiction over other aspects of our national infrastructure, such as clean water and waste water management, the transport of resources by pipeline, flood damage reduction, the management of federally owned real estate and public buildings, the development of economically depressed rural and urban areas, disaster preparedness and response, and hazardous materials transportation.",http://transportation.house.gov/about/history.htm,http://democrats.transportation.house.gov/rss.xml,http://democrats.transportation.house.gov/,House Committee on Transportation and Infrastructure,(202) 225-9446,http://transportation.house.gov/rss.xml,,"2029 RHOB; Washington, DC 20515","Railroads, Pipelines, and Hazardous Materials",(202) 226-0727,14,,HSPW,house,http://transportation.house.gov/,
"2251 RHOB; Washington, DC 20515-6256",PW,"The Transportation and Infrastructure Committee has jurisdiction over all modes of transportation: aviation, maritime and waterborne transportation, highways, bridges, mass transit, and railroads.  The Committee also has jurisdiction over other aspects of our national infrastructure, such as clean water and waste water management, the transport of resources by pipeline, flood damage reduction, the management of federally owned real estate and public buildings, the development of economically depressed rural and urban areas, disaster preparedness and response, and hazardous materials transportation.",http://transportation.house.gov/about/history.htm,http://democrats.transportation.house.gov/rss.xml,http://democrats.transportation.house.gov/,House Committee on Transportation and Infrastructure,(202) 225-9446,http://transportation.house.gov/rss.xml,,"585 FHOB; Washington, DC 20515",Water Resources and Environment,(202) 225-4360,02,,HSPW,house,http://transportation.house.gov/,
"H312 CAPITOL; Washington, DC 20515-6269",RU,"The Rules Committee has two broad categories of jurisdiction: special orders for the consideration of legislation (known as “special rules” or “rules”) and original jurisdiction matters. A special rule provides the terms and conditions of debate on a measure or matter, consideration of which constitutes the bulk of the work of the Rules Committee. The Committee also considers original jurisdiction measures, which commonly represent changes to the standing rules of the House, or measures that contain special rules, such as the expedited procedures in trade legislation.",http://rules.house.gov/about,http://democrats.rules.house.gov/rss.xml,http://democrats.rules.house.gov/,House Committee on Rules,(202) 225-9191,,,"H312 CAPITOL; Washington, DC 20515",Legislative and Budget Process,(202) 225-9191,02,,HSRU,house,http://rules.house.gov/,
"H312 CAPITOL; Washington, DC 20515-6269",RU,"The Rules Committee has two broad categories of jurisdiction: special orders for the consideration of legislation (known as “special rules” or “rules”) and original jurisdiction matters. A special rule provides the terms and conditions of debate on a measure or matter, consideration of which constitutes the bulk of the work of the Rules Committee. The Committee also considers original jurisdiction measures, which commonly represent changes to the standing rules of the House, or measures that contain special rules, such as the expedited procedures in trade legislation.",http://rules.house.gov/about,http://democrats.rules.house.gov/rss.xml,http://democrats.rules.house.gov/,House Committee on Rules,(202) 225-9191,,,"H312 CAPITOL; Washington, DC 20515",Rules and Organization of the House,(202) 225-9191,04,,HSRU,house,http://rules.house.gov/,
"2361 RHOB; Washington, DC 20515-6315",SM,"The House Small Business Committee was established to protect and assist small businesses.  The Committee has jurisdiction over matters related to small business financial aid, regulatory flexibility, paperwork reduction, and the Small Business Administration (SBA) and its programs.",http://smallbusiness.house.gov/about/rulesandjurisdiction.htm,http://democrats.smallbusiness.house.gov/rss.xml,http://democrats.smallbusiness.house.gov/,House Committee on Small Business,(202) 225-5821,http://smallbusiness.house.gov/news/rss.aspx,,"2361 RHOB; Washington, DC 20515",Contracting and Workforce,(202) 225-5821,23,,HSSM,house,http://smallbusiness.house.gov/,
"2361 RHOB; Washington, DC 20515-6315",SM,"The House Small Business Committee was established to protect and assist small businesses.  The Committee has jurisdiction over matters related to small business financial aid, regulatory flexibility, paperwork reduction, and the Small Business Administration (SBA) and its programs.",http://smallbusiness.house.gov/about/rulesandjurisdiction.htm,http://democrats.smallbusiness.house.gov/rss.xml,http://democrats.smallbusiness.house.gov/,House Committee on Small Business,(202) 225-5821,http://smallbusiness.house.gov/news/rss.aspx,,"2361 RHOB; Washington, DC 20515","Investigations, Oversight and Regulations",(202) 225-5821,24,,HSSM,house,http://smallbusiness.house.gov/,
"2361 RHOB; Washington, DC 20515-6315",SM,"The House Small Business Committee was established to protect and assist small businesses.  The Committee has jurisdiction over matters related to small business financial aid, regulatory flexibility, paperwork reduction, and the Small Business Administration (SBA) and its programs.",http://smallbusiness.house.gov/about/rulesandjurisdiction.htm,http://democrats.smallbusiness.house.gov/rss.xml,http://democrats.smallbusiness.house.gov/,House Committee on Small Business,(202) 225-5821,http://smallbusiness.house.gov/news/rss.aspx,,"2361 RHOB; Washington, DC 20515","Agriculture, Energy and Trade",(202) 225-5821,25,,HSSM,house,http://smallbusiness.house.gov/,
"2361 RHOB; Washington, DC 20515-6315",SM,"The House Small Business Committee was established to protect and assist small businesses.  The Committee has jurisdiction over matters related to small business financial aid, regulatory flexibility, paperwork reduction, and the Small Business Administration (SBA) and its programs.",http://smallbusiness.house.gov/about/rulesandjurisdiction.htm,http://democrats.smallbusiness.house.gov/rss.xml,http://democrats.smallbusiness.house.gov/,House Committee on Small Business,(202) 225-5821,http://smallbusiness.house.gov/news/rss.aspx,,"2361 RHOB; Washington, DC 20515",Health and Technology,(202) 225-5821,26,,HSSM,house,http://smallbusiness.house.gov/,
"2361 RHOB; Washington, DC 20515-6315",SM,"The House Small Business Committee was established to protect and assist small businesses.  The Committee has jurisdiction over matters related to small business financial aid, regulatory flexibility, paperwork reduction, and the Small Business Administration (SBA) and its programs.",http://smallbusiness.house.gov/about/rulesandjurisdiction.htm,http://democrats.smallbusiness.house.gov/rss.xml,http://democrats.smallbusiness.house.gov/,House Committee on Small Business,(202) 225-5821,http://smallbusiness.house.gov/news/rss.aspx,,"2361 RHOB; Washington, DC 20515","Economic Growth, Tax and Capital Access",(202) 225-5821,27,,HSSM,house,http://smallbusiness.house.gov/,
"1015 LHOB; Washington, DC 20515-6328",SO,"The House Ethics Committee has the jurisdiction to administer travel, gift, financial disclosure, outside income, and other regulations related to the actions of members of the House.",http://ethics.house.gov/about/committee-history,,,House Committee on Ethics,(202) 225-7103,http://ethics.house.gov/rss.xml,,,,,,,HSSO,house,http://ethics.house.gov/,
"2321 RHOB; Washington, DC 20515-6301",SY,"The Committee on Science, Space, and Technology has jurisdiction over energy research, all federally owned or operated non-military energy laboratories, astronautical research and development, civil aviation, environmental research and development, marine research, the National Institute of Standards and Technology, NASA, NSF, NWS, outer space, and other aspects of scientific research.",http://science.house.gov/jurisdiction,http://democrats.science.house.gov/rss.xml,http://democrats.science.house.gov/,"House Committee on Science, Space, and Technology",(202) 225-6371,http://science.house.gov/rss.xml,,"2319 RHOB; Washington, DC 20515",Energy,(202) 225-6371,20,,HSSY,house,http://science.house.gov/,
"2321 RHOB; Washington, DC 20515-6301",SY,"The Committee on Science, Space, and Technology has jurisdiction over energy research, all federally owned or operated non-military energy laboratories, astronautical research and development, civil aviation, environmental research and development, marine research, the National Institute of Standards and Technology, NASA, NSF, NWS, outer space, and other aspects of scientific research.",http://science.house.gov/jurisdiction,http://democrats.science.house.gov/rss.xml,http://democrats.science.house.gov/,"House Committee on Science, Space, and Technology",(202) 225-6371,http://science.house.gov/rss.xml,,"2321 RHOB; Washington, DC 20515",Oversight,(202) 225-6371,21,,HSSY,house,http://science.house.gov/,
"2321 RHOB; Washington, DC 20515-6301",SY,"The Committee on Science, Space, and Technology has jurisdiction over energy research, all federally owned or operated non-military energy laboratories, astronautical research and development, civil aviation, environmental research and development, marine research, the National Institute of Standards and Technology, NASA, NSF, NWS, outer space, and other aspects of scientific research.",http://science.house.gov/jurisdiction,http://democrats.science.house.gov/rss.xml,http://democrats.science.house.gov/,"House Committee on Science, Space, and Technology",(202) 225-6371,http://science.house.gov/rss.xml,,"4220 OFOB; Washington, DC 20515",Space,(202) 225-6371,16,,HSSY,house,http://science.house.gov/,
"2321 RHOB; Washington, DC 20515-6301",SY,"The Committee on Science, Space, and Technology has jurisdiction over energy research, all federally owned or operated non-military energy laboratories, astronautical research and development, civil aviation, environmental research and development, marine research, the National Institute of Standards and Technology, NASA, NSF, NWS, outer space, and other aspects of scientific research.",http://science.house.gov/jurisdiction,http://democrats.science.house.gov/rss.xml,http://democrats.science.house.gov/,"House Committee on Science, Space, and Technology",(202) 225-6371,http://science.house.gov/rss.xml,,"2319 RHOB; Washington, DC 20515",Environment,(202) 225-6371,18,,HSSY,house,http://science.house.gov/,
"2321 RHOB; Washington, DC 20515-6301",SY,"The Committee on Science, Space, and Technology has jurisdiction over energy research, all federally owned or operated non-military energy laboratories, astronautical research and development, civil aviation, environmental research and development, marine research, the National Institute of Standards and Technology, NASA, NSF, NWS, outer space, and other aspects of scientific research.",http://science.house.gov/jurisdiction,http://democrats.science.house.gov/rss.xml,http://democrats.science.house.gov/,"House Committee on Science, Space, and Technology",(202) 225-6371,http://science.house.gov/rss.xml,,"4220 OFOB; Washington, DC 20515",Research and Technology,(202) 225-6371,15,,HSSY,house,http://science.house.gov/,
"1036 LHOB; Washington, DC 20515-6090",ZI,,,http://democrats.benghazi.house.gov/rss.xml,http://democrats.benghazi.house.gov/,House Select Committee on the Events Surrounding the 2012 Terrorist Attack in Benghazi,(202) 226-7100,http://benghazi.house.gov/rss.xml,,,,,,,HLZI,house,http://benghazi.house.gov/,
"335 CHOB; Washington, DC 20515-6335",VR,"The Committee on Veterans’ Affairs is the authorizing Committee for the Department of Veterans Affairs. The Committee recommends legislation expanding, curtailing, or fine-tuning existing laws relating to veterans’ benefits. The Committee also has oversight responsibility of the VA.",http://veterans.house.gov/about/history-jurisdiction,http://democrats.veterans.house.gov/rss.xml,http://democrats.veterans.house.gov/,House Committee on Veterans' Affairs,(202) 225-3527,http://veterans.house.gov/rss.xml,,"337 CHOB; Washington, DC 20515",Disability Assistance and Memorial Affairs,(202) 225-9164,09,,HSVR,house,http://veterans.house.gov/,
"335 CHOB; Washington, DC 20515-6335",VR,"The Committee on Veterans’ Affairs is the authorizing Committee for the Department of Veterans Affairs. The Committee recommends legislation expanding, curtailing, or fine-tuning existing laws relating to veterans’ benefits. The Committee also has oversight responsibility of the VA.",http://veterans.house.gov/about/history-jurisdiction,http://democrats.veterans.house.gov/rss.xml,http://democrats.veterans.house.gov/,House Committee on Veterans' Affairs,(202) 225-3527,http://veterans.house.gov/rss.xml,,"335 CHOB; Washington, DC 20515",Economic Opportunity,(202) 226-5491,10,,HSVR,house,http://veterans.house.gov/,
"335 CHOB; Washington, DC 20515-6335",VR,"The Committee on Veterans’ Affairs is the authorizing Committee for the Department of Veterans Affairs. The Committee recommends legislation expanding, curtailing, or fine-tuning existing laws relating to veterans’ benefits. The Committee also has oversight responsibility of the VA.",http://veterans.house.gov/about/history-jurisdiction,http://democrats.veterans.house.gov/rss.xml,http://democrats.veterans.house.gov/,House Committee on Veterans' Affairs,(202) 225-3527,http://veterans.house.gov/rss.xml,,"338 CHOB; Washington, DC 20515",Health,(202) 225-9154,03,,HSVR,house,http://veterans.house.gov/,
"335 CHOB; Washington, DC 20515-6335",VR,"The Committee on Veterans’ Affairs is the authorizing Committee for the Department of Veterans Affairs. The Committee recommends legislation expanding, curtailing, or fine-tuning existing laws relating to veterans’ benefits. The Committee also has oversight responsibility of the VA.",http://veterans.house.gov/about/history-jurisdiction,http://democrats.veterans.house.gov/rss.xml,http://democrats.veterans.house.gov/,House Committee on Veterans' Affairs,(202) 225-3527,http://veterans.house.gov/rss.xml,,"337A CHOB; Washington, DC 20515",Oversight and Investigations,(202) 225-3569,08,,HSVR,house,http://veterans.house.gov/,
"1102 LHOB; Washington, DC 20515-6348",WM,"The Committee on Ways and Means is the oldest committee of the United States Congress, and is the chief tax-writing committee in the House of Representatives. The Committee derives a large share of its jurisdiction from Article I, Section VII of the U.S. Constitution which declares, “All Bills for raising Revenue shall originate in the House of Representatives.”",http://waysandmeans.house.gov/about/history.htm,http://democrats.waysandmeans.house.gov/rss.xml,http://democrats.waysandmeans.house.gov/,House Committee on Ways and Means,(202) 225-3625,,,"1104 LHOB; Washington, DC 20515",Health,(202) 225-3943,02,,HSWM,house,http://waysandmeans.house.gov/,
"1102 LHOB; Washington, DC 20515-6348",WM,"The Committee on Ways and Means is the oldest committee of the United States Congress, and is the chief tax-writing committee in the House of Representatives. The Committee derives a large share of its jurisdiction from Article I, Section VII of the U.S. Constitution which declares, “All Bills for raising Revenue shall originate in the House of Representatives.”",http://waysandmeans.house.gov/about/history.htm,http://democrats.waysandmeans.house.gov/rss.xml,http://democrats.waysandmeans.house.gov/,House Committee on Ways and Means,(202) 225-3625,,,"1129 LHOB; Washington, DC 20515",Human Resources,(202) 225-1025,03,,HSWM,house,http://waysandmeans.house.gov/,
"1102 LHOB; Washington, DC 20515-6348",WM,"The Committee on Ways and Means is the oldest committee of the United States Congress, and is the chief tax-writing committee in the House of Representatives. The Committee derives a large share of its jurisdiction from Article I, Section VII of the U.S. Constitution which declares, “All Bills for raising Revenue shall originate in the House of Representatives.”",http://waysandmeans.house.gov/about/history.htm,http://democrats.waysandmeans.house.gov/rss.xml,http://democrats.waysandmeans.house.gov/,House Committee on Ways and Means,(202) 225-3625,,,"2018 RHOB; Washington, DC 20515",Oversight,(202) 225-9263,06,,HSWM,house,http://waysandmeans.house.gov/,
"1102 LHOB; Washington, DC 20515-6348",WM,"The Committee on Ways and Means is the oldest committee of the United States Congress, and is the chief tax-writing committee in the House of Representatives. The Committee derives a large share of its jurisdiction from Article I, Section VII of the U.S. Constitution which declares, “All Bills for raising Revenue shall originate in the House of Representatives.”",http://waysandmeans.house.gov/about/history.htm,http://democrats.waysandmeans.house.gov/rss.xml,http://democrats.waysandmeans.house.gov/,House Committee on Ways and Means,(202) 225-3625,,,"1136 LHOB; Washington, DC 20515",Tax Policy,(202) 225-5522,05,,HSWM,house,http://waysandmeans.house.gov/,
"1102 LHOB; Washington, DC 20515-6348",WM,"The Committee on Ways and Means is the oldest committee of the United States Congress, and is the chief tax-writing committee in the House of Representatives. The Committee derives a large share of its jurisdiction from Article I, Section VII of the U.S. Constitution which declares, “All Bills for raising Revenue shall originate in the House of Representatives.”",http://waysandmeans.house.gov/about/history.htm,http://democrats.waysandmeans.house.gov/rss.xml,http://democrats.waysandmeans.house.gov/,House Committee on Ways and Means,(202) 225-3625,,,"2018 RHOB; Washington, DC 20515",Social Security,(202) 225-9263,01,,HSWM,house,http://waysandmeans.house.gov/,
"1102 LHOB; Washington, DC 20515-6348",WM,"The Committee on Ways and Means is the oldest committee of the United States Congress, and is the chief tax-writing committee in the House of Representatives. The Committee derives a large share of its jurisdiction from Article I, Section VII of the U.S. Constitution which declares, “All Bills for raising Revenue shall originate in the House of Representatives.”",http://waysandmeans.house.gov/about/history.htm,http://democrats.waysandmeans.house.gov/rss.xml,http://democrats.waysandmeans.house.gov/,House Committee on Ways and Means,(202) 225-3625,,,"1103 LHOB; Washington, DC 20515",Trade,(202) 225-6649,04,,HSWM,house,http://waysandmeans.house.gov/,
,,,,,,Commission on Security and Cooperation in Europe,,,JCSE,,,,,,JCSE,joint,http://www.csce.gov/,Commission on Security and Cooperation in Europe
,,,,http://www.jec.senate.gov/public/?a=RSS.Feed,,Joint Economic Committee,,http://www.jec.senate.gov/republicans/public/?a=RSS.Feed,JSEC,,,,,,JSEC,joint,http://jec.senate.gov/,Joint Economic Committee
,,,,,,Joint Committee on the Library,,,JSLC,,,,,,JSLC,joint,https://cha.house.gov/jointcommittees/joint-committee-library,Joint Committee on the Library
,,,,,,Joint Committee on Printing,,,JSPR,,,,,,JSPR,joint,https://cha.house.gov/jointcommittees/joint-committee-on-printing,Joint Committee on Printing
,,,,,,Joint Committee on Taxation,,,JSTX,,,,,,JSTX,joint,https://www.jct.gov,United States Congress Joint Committee on Taxation
,,,,,,United States Senate Caucus on International Narcotics Control,,,SCNC,,,,,,SCNC,senate,http://www.drugcaucus.senate.gov/,
,,,,,,Senate Select Committee on Ethics,,http://www.ethics.senate.gov/public/?a=RSS.Feed,SLET,,,,,,SLET,senate,http://ethics.senate.gov/,United States Senate Select Committee on Ethics
,,,,,,Senate Committee on Indian Affairs,,,SLIA,,,,,,SLIA,senate,http://indian.senate.gov/,United States Senate Committee on Indian Affairs
,,,,,,Senate Select Committee on Intelligence,,,SLIN,,,,,,SLIN,senate,http://intelligence.senate.gov/,United States Senate Select Committee on Intelligence
,,,,,,Senate Special Committee on Aging,,,SPAG,,,,,,SPAG,senate,http://www.aging.senate.gov/,United States Senate Special Committee on Aging
,,,,http://www.ag.senate.gov/rss/feeds/?type=press&amp;groups=republican,,"Senate Committee on Agriculture, Nutrition, and Forestry",,http://www.ag.senate.gov/rss/feeds/?type=press&amp;groups=democrat,SSAF,,"Commodities, Risk Management and Trade",,13,"United States Senate Agriculture Subcommittee on Commodities, Markets, Trade and Risk Management",SSAF,senate,http://agriculture.senate.gov/,"United States Senate Committee on Agriculture, Nutrition and Forestry"
,,,,http://www.ag.senate.gov/rss/feeds/?type=press&amp;groups=republican,,"Senate Committee on Agriculture, Nutrition, and Forestry",,http://www.ag.senate.gov/rss/feeds/?type=press&amp;groups=democrat,SSAF,,"Conservation, Forestry and Natural Resources",,14,"United States Senate Agriculture Subcommittee on Conservation, Forestry and Natural Resources",SSAF,senate,http://agriculture.senate.gov/,"United States Senate Committee on Agriculture, Nutrition and Forestry"
,,,,http://www.ag.senate.gov/rss/feeds/?type=press&amp;groups=republican,,"Senate Committee on Agriculture, Nutrition, and Forestry",,http://www.ag.senate.gov/rss/feeds/?type=press&amp;groups=democrat,SSAF,,Rural Development and Energy,,15,"United States Senate Agriculture Subcommittee on Jobs, Rural Economic Growth and Energy Innovation",SSAF,senate,http://agriculture.senate.gov/,"United States Senate Committee on Agriculture, Nutrition and Forestry"
,,,,http://www.ag.senate.gov/rss/feeds/?type=press&amp;groups=republican,,"Senate Committee on Agriculture, Nutrition, and Forestry",,http://www.ag.senate.gov/rss/feeds/?type=press&amp;groups=democrat,SSAF,,"Nutrition, Specialty Crops, and Agricultural Research",,16,"United States Senate Agriculture Subcommittee on Nutrition, Specialty Crops, Food and Agricultural Research",SSAF,senate,http://agriculture.senate.gov/,"United States Senate Committee on Agriculture, Nutrition and Forestry"
,,,,http://www.ag.senate.gov/rss/feeds/?type=press&amp;groups=republican,,"Senate Committee on Agriculture, Nutrition, and Forestry",,http://www.ag.senate.gov/rss/feeds/?type=press&amp;groups=democrat,SSAF,,"Livestock, Marketing and Agriculture Security",,17,"United States Senate Agriculture Subcommittee on Livestock, Dairy, Poultry, Marketing and Agriculture Security",SSAF,senate,http://agriculture.senate.gov/,"United States Senate Committee on Agriculture, Nutrition and Forestry"
,,,,,,Senate Committee on Appropriations,,,SSAP,,"Commerce, Justice, Science, and Related Agencies",,16,"United States Senate Appropriations Subcommittee on Commerce, Justice, Science, and Related Agencies",SSAP,senate,http://appropriations.senate.gov/,United States Senate Committee on Appropriations
,,,,,,Senate Committee on Appropriations,,,SSAP,,Energy and Water Development,,22,United States Senate Appropriations Subcommittee on Financial Services and General Government,SSAP,senate,http://appropriations.senate.gov/,United States Senate Committee on Appropriations
,,,,,,Senate Committee on Appropriations,,,SSAP,,Financial Services and General Government,,23,United States Senate Appropriations Subcommittee on Financial Services and General Government,SSAP,senate,http://appropriations.senate.gov/,United States Senate Committee on Appropriations
,,,,,,Senate Committee on Appropriations,,,SSAP,,Department of Homeland Security,,14,United States Senate Appropriations Subcommittee on Homeland Security,SSAP,senate,http://appropriations.senate.gov/,United States Senate Committee on Appropriations
,,,,,,Senate Committee on Appropriations,,,SSAP,,"Department of the Interior, Environment, and Related Agencies",,17,"United States Senate Appropriations Subcommittee on Interior, Environment, and Related Agencies",SSAP,senate,http://appropriations.senate.gov/,United States Senate Committee on Appropriations
,,,,,,Senate Committee on Appropriations,,,SSAP,,"Departments of Labor, Health and Human Services, and Education, and Related Agencies",,18,"United States Senate Appropriations Subcommittee on Labor, Health and Human Services, Education, and Related Agencies",SSAP,senate,http://appropriations.senate.gov/,United States Senate Committee on Appropriations
,,,,,,Senate Committee on Appropriations,,,SSAP,,"Military Construction and Veterans Affairs, and Related Agencies",,19,"United States Senate Appropriations Subcommittee on Military Construction, Veterans Affairs, and Related Agencies",SSAP,senate,http://appropriations.senate.gov/,United States Senate Committee on Appropriations
,,,,,,Senate Committee on Appropriations,,,SSAP,,"State, Foreign Operations, and Related Programs",,20,"United States Senate Appropriations Subcommittee on the Department of State, Foreign Operations, and Related Programs",SSAP,senate,http://appropriations.senate.gov/,United States Senate Committee on Appropriations
,,,,,,Senate Committee on Appropriations,,,SSAP,,"Transportation, Housing and Urban Development, and Related Agencies",,24,"United States Senate Appropriations Subcommittee on Transportation, Housing and Urban Development, and Related Agencies",SSAP,senate,http://appropriations.senate.gov/,United States Senate Committee on Appropriations
,,,,,,Senate Committee on Appropriations,,,SSAP,,"Agriculture, Rural Development, Food and Drug Administration, and Related Agencies",,01,"United States Senate Appropriations Subcommittee on Agriculture, Rural Development, Food and Drug Administration, and Related Agencies",SSAP,senate,http://appropriations.senate.gov/,United States Senate Committee on Appropriations
,,,,,,Senate Committee on Appropriations,,,SSAP,,Department of Defense,,02,United States Senate Appropriations Subcommittee on Defense,SSAP,senate,http://appropriations.senate.gov/,United States Senate Committee on Appropriations
,,,,,,Senate Committee on Appropriations,,,SSAP,,Legislative Branch,,08,United States Senate Appropriations Subcommittee on Legislative Branch,SSAP,senate,http://appropriations.senate.gov/,United States Senate Committee on Appropriations
,,,,,,Senate Committee on Armed Services,,"http://www.armed-services.senate.gov/press/index.cfm?xml=Press%20Releases,RSS2.0",SSAS,,Airland,,14,United States Senate Armed Services Subcommittee on Airland,SSAS,senate,http://armed-services.senate.gov/,United States Senate Committee on Armed Services
,,,,,,Senate Committee on Armed Services,,"http://www.armed-services.senate.gov/press/index.cfm?xml=Press%20Releases,RSS2.0",SSAS,,Emerging Threats and Capabilities,,20,United States Senate Armed Services Subcommittee on Emerging Threats and Capabilities,SSAS,senate,http://armed-services.senate.gov/,United States Senate Committee on Armed Services
,,,,,,Senate Committee on Armed Services,,"http://www.armed-services.senate.gov/press/index.cfm?xml=Press%20Releases,RSS2.0",SSAS,,Personnel,,17,United States Senate Armed Services Subcommittee on Personnel,SSAS,senate,http://armed-services.senate.gov/,United States Senate Committee on Armed Services
,,,,,,Senate Committee on Armed Services,,"http://www.armed-services.senate.gov/press/index.cfm?xml=Press%20Releases,RSS2.0",SSAS,,Readiness and Management Support,,15,United States Senate Armed Services Subcommittee on Readiness and Management Support,SSAS,senate,http://armed-services.senate.gov/,United States Senate Committee on Armed Services
,,,,,,Senate Committee on Armed Services,,"http://www.armed-services.senate.gov/press/index.cfm?xml=Press%20Releases,RSS2.0",SSAS,,SeaPower,,13,United States Senate Armed Services Subcommittee on Seapower,SSAS,senate,http://armed-services.senate.gov/,United States Senate Committee on Armed Services
,,,,,,Senate Committee on Armed Services,,"http://www.armed-services.senate.gov/press/index.cfm?xml=Press%20Releases,RSS2.0",SSAS,,Strategic Forces,,16,United States Senate Armed Services Subcommittee on Strategic Forces,SSAS,senate,http://armed-services.senate.gov/,United States Senate Committee on Armed Services
,,,,,,"Senate Committee on Banking, Housing, and Urban Affairs",,,SSBK,,Economic Policy,,12,United States Senate Banking Subcommittee on Economic Policy,SSBK,senate,http://banking.senate.gov/,"United States Senate Committee on Banking, Housing, and Urban Affairs"
,,,,,,"Senate Committee on Banking, Housing, and Urban Affairs",,,SSBK,,National Security and International Trade and Finance,,05,United States Senate Banking Subcommittee on Security and International Trade and Finance,SSBK,senate,http://banking.senate.gov/,"United States Senate Committee on Banking, Housing, and Urban Affairs"
,,,,,,"Senate Committee on Banking, Housing, and Urban Affairs",,,SSBK,,"Securities, Insurance, and Investment",,04,"United States Senate Banking Subcommittee on Securities, Insurance, and Investment",SSBK,senate,http://banking.senate.gov/,"United States Senate Committee on Banking, Housing, and Urban Affairs"
,,,,,,"Senate Committee on Banking, Housing, and Urban Affairs",,,SSBK,,"Housing, Transportation, and Community Development",,09,"United States Senate Banking Subcommittee on Housing, Transportation, and Community Development",SSBK,senate,http://banking.senate.gov/,"United States Senate Committee on Banking, Housing, and Urban Affairs"
,,,,,,"Senate Committee on Banking, Housing, and Urban Affairs",,,SSBK,,Financial Institutions and Consumer Protection,,08,United States Senate Banking Subcommittee on Financial Institutions and Consumer Protection,SSBK,senate,http://banking.senate.gov/,"United States Senate Committee on Banking, Housing, and Urban Affairs"
,,,,http://www.budget.senate.gov/republican/public/index.cfm/rss/feed,,Senate Committee on the Budget,,"http://www.budget.senate.gov/democratic/index.cfm?a=RSS.Feed&amp;Type=press-releases,statements",SSBU,,,,,,SSBU,senate,http://budget.senate.gov/,United States Senate Committee on the Budget
,,,,,,"Senate Committee on Commerce, Science, and Transportation",,http://www.commerce.senate.gov/public/?a=RSS.Feed,SSCM,,"Communications, Technology, Innovation, and the Internet",,26,"United States Senate Commerce Subcommittee on Communications, Technology, and the Internet",SSCM,senate,http://commerce.senate.gov/,"United States Senate Committee on Commerce, Science and Transportation"
,,,,,,"Senate Committee on Commerce, Science, and Transportation",,http://www.commerce.senate.gov/public/?a=RSS.Feed,SSCM,,"Tourism, Competitiveness, and Innovation",,27,"United States Senate Commerce Subcommittee on Competitiveness, Innovation, and Export Promotion",SSCM,senate,http://commerce.senate.gov/,"United States Senate Committee on Commerce, Science and Transportation"
,,,,,,"Senate Committee on Commerce, Science, and Transportation",,http://www.commerce.senate.gov/public/?a=RSS.Feed,SSCM,,"Consumer Protection, Product Safety, Insurance, and Data Security",,20,"United States Senate Commerce Subcommittee on Consumer Protection, Product Safety, and Insurance",SSCM,senate,http://commerce.senate.gov/,"United States Senate Committee on Commerce, Science and Transportation"
,,,,,,"Senate Committee on Commerce, Science, and Transportation",,http://www.commerce.senate.gov/public/?a=RSS.Feed,SSCM,,"Oceans, Atmosphere, Fisheries, and Coast Guard",,22,"United States Senate Commerce Subcommittee on Oceans, Atmosphere, Fisheries, and Coast Guard",SSCM,senate,http://commerce.senate.gov/,"United States Senate Committee on Commerce, Science and Transportation"
,,,,,,"Senate Committee on Commerce, Science, and Transportation",,http://www.commerce.senate.gov/public/?a=RSS.Feed,SSCM,,"Space, Science, and Competitiveness",,24,United States Senate Commerce Subcommittee on Science and Space,SSCM,senate,http://commerce.senate.gov/,"United States Senate Committee on Commerce, Science and Transportation"
,,,,,,"Senate Committee on Commerce, Science, and Transportation",,http://www.commerce.senate.gov/public/?a=RSS.Feed,SSCM,,"Surface Transportation and Merchant Marine Infrastructure, Safety and Security",,25,"United States Senate Commerce Subcommittee on Surface Transportation and Merchant Marine Infrastructure, Safety, and Security",SSCM,senate,http://commerce.senate.gov/,"United States Senate Committee on Commerce, Science and Transportation"
,,,,,,"Senate Committee on Commerce, Science, and Transportation",,http://www.commerce.senate.gov/public/?a=RSS.Feed,SSCM,,"Aviation Operations, Safety, and Security",,01,"United States Senate Commerce Subcommittee on Aviation Operations, Safety, and Security",SSCM,senate,http://commerce.senate.gov/,"United States Senate Committee on Commerce, Science and Transportation"
,,,,http://www.energy.senate.gov/public/index.cfm/rss/feed?type=republican-news,,Senate Committee on Energy and Natural Resources,,http://www.energy.senate.gov/public/index.cfm/rss/feed?type=democratic-news,SSEG,,Water and Power,,07,United States Senate Energy Subcommittee on Water and Power,SSEG,senate,http://energy.senate.gov/,United States Senate Committee on Energy and Natural Resources
,,,,http://www.energy.senate.gov/public/index.cfm/rss/feed?type=republican-news,,Senate Committee on Energy and Natural Resources,,http://www.energy.senate.gov/public/index.cfm/rss/feed?type=democratic-news,SSEG,,National Parks,,04,United States Senate Energy Subcommittee on National Parks,SSEG,senate,http://energy.senate.gov/,United States Senate Committee on Energy and Natural Resources
,,,,http://www.energy.senate.gov/public/index.cfm/rss/feed?type=republican-news,,Senate Committee on Energy and Natural Resources,,http://www.energy.senate.gov/public/index.cfm/rss/feed?type=democratic-news,SSEG,,Energy,,01,United States Senate Energy Subcommittee on Energy,SSEG,senate,http://energy.senate.gov/,United States Senate Committee on Energy and Natural Resources
,,,,http://www.energy.senate.gov/public/index.cfm/rss/feed?type=republican-news,,Senate Committee on Energy and Natural Resources,,http://www.energy.senate.gov/public/index.cfm/rss/feed?type=democratic-news,SSEG,,"Public Lands, Forests, and Mining",,03,"United States Senate Energy Subcommittee on Public Lands, Forests and Mining",SSEG,senate,http://energy.senate.gov/,United States Senate Committee on Energy and Natural Resources
,,,,http://www.epw.senate.gov/public/index.cfm?FuseAction=RSS.Minority,,Senate Committee on Environment and Public Works,,http://www.epw.senate.gov/public/index.cfm?FuseAction=RSS.Majority,SSEV,,Clean Air and Nuclear Safety,,10,United States Senate Environment and Public Works Subcommittee on Clean Air and Nuclear Safety,SSEV,senate,http://epw.senate.gov/,United States Senate Committee on Environment and Public Works
,,,,http://www.epw.senate.gov/public/index.cfm?FuseAction=RSS.Minority,,Senate Committee on Environment and Public Works,,http://www.epw.senate.gov/public/index.cfm?FuseAction=RSS.Majority,SSEV,,"Superfund, Waste Management, and Regulatory Oversight",,09,"United States Senate Environment and Public Works Subcommittee on Superfund, Toxics and Environmental Health",SSEV,senate,http://epw.senate.gov/,United States Senate Committee on Environment and Public Works
,,,,http://www.epw.senate.gov/public/index.cfm?FuseAction=RSS.Minority,,Senate Committee on Environment and Public Works,,http://www.epw.senate.gov/public/index.cfm?FuseAction=RSS.Majority,SSEV,,Green Jobs and the New Economy,,16,United States Senate Environment and Public Works Subcommittee on Green Jobs and the New Economy,SSEV,senate,http://epw.senate.gov/,United States Senate Committee on Environment and Public Works
,,,,http://www.epw.senate.gov/public/index.cfm?FuseAction=RSS.Minority,,Senate Committee on Environment and Public Works,,http://www.epw.senate.gov/public/index.cfm?FuseAction=RSS.Majority,SSEV,,Oversight,,18,United States Senate Environment and Public Works Subcommittee on Oversight,SSEV,senate,http://epw.senate.gov/,United States Senate Committee on Environment and Public Works
,,,,http://www.epw.senate.gov/public/index.cfm?FuseAction=RSS.Minority,,Senate Committee on Environment and Public Works,,http://www.epw.senate.gov/public/index.cfm?FuseAction=RSS.Majority,SSEV,,Transportation and Infrastructure,,08,United States Senate Environment and Public Works Subcommittee on Transportation and Infrastructure,SSEV,senate,http://epw.senate.gov/,United States Senate Committee on Environment and Public Works
,,,,http://www.epw.senate.gov/public/index.cfm?FuseAction=RSS.Minority,,Senate Committee on Environment and Public Works,,http://www.epw.senate.gov/public/index.cfm?FuseAction=RSS.Majority,SSEV,,"Fisheries, Water, and Wildlife",,15,United States Senate Environment and Public Works Subcommittee on Water and Wildlife,SSEV,senate,http://epw.senate.gov/,United States Senate Committee on Environment and Public Works
,,,,http://www.finance.senate.gov/rss/feed/ranking/,,Senate Committee on Finance,,http://www.finance.senate.gov/rss/feed/chair/,SSFI,,"Energy, Natural Resources, and Infrastructure",,12,"United States Senate Finance Subcommittee on Energy, Natural Resources, and Infrastructure",SSFI,senate,http://finance.senate.gov/,United States Senate Committee on Finance
,,,,http://www.finance.senate.gov/rss/feed/ranking/,,Senate Committee on Finance,,http://www.finance.senate.gov/rss/feed/chair/,SSFI,,Health Care,,10,United States Senate Finance Subcommittee on Health Care,SSFI,senate,http://finance.senate.gov/,United States Senate Committee on Finance
,,,,http://www.finance.senate.gov/rss/feed/ranking/,,Senate Committee on Finance,,http://www.finance.senate.gov/rss/feed/chair/,SSFI,,"International Trade, Customs, and Global Competitiveness",,13,"United States Senate Finance Subcommittee on International Trade, Customs, and Global Competitiveness",SSFI,senate,http://finance.senate.gov/,United States Senate Committee on Finance
,,,,http://www.finance.senate.gov/rss/feed/ranking/,,Senate Committee on Finance,,http://www.finance.senate.gov/rss/feed/chair/,SSFI,,Fiscal Responsibility and Economic Growth,,14,United States Senate Finance Subcommittee on Fiscal Responsibility and Economic Growth,SSFI,senate,http://finance.senate.gov/,United States Senate Committee on Finance
,,,,http://www.finance.senate.gov/rss/feed/ranking/,,Senate Committee on Finance,,http://www.finance.senate.gov/rss/feed/chair/,SSFI,,Taxation and IRS Oversight,,11,United States Senate Finance Subcommittee on Taxation and IRS Oversight,SSFI,senate,http://finance.senate.gov/,United States Senate Committee on Finance
,,,,http://www.finance.senate.gov/rss/feed/ranking/,,Senate Committee on Finance,,http://www.finance.senate.gov/rss/feed/chair/,SSFI,,"Social Security, Pensions, and Family Policy",,02,"United States Senate Finance Subcommittee on Social Security, Pensions, and Family Policy",SSFI,senate,http://finance.senate.gov/,United States Senate Committee on Finance
,,,,http://www.foreign.senate.gov/rss/feed/ranking/,,Senate Committee on Foreign Relations,,http://www.foreign.senate.gov/rss/feed/chair/,SSFR,,"International Development and Foreign Assistance, Economic Affairs, International Environmental Protection, and Peace Corps",,12,"United States Senate Foreign Relations Subcommittee on International Development and Foreign Assistance, Economic Affairs and International Environmental Protection, and Peace Corps",SSFR,senate,http://foreign.senate.gov/,United States Senate Committee on Foreign Relations
,,,,http://www.foreign.senate.gov/rss/feed/ranking/,,Senate Committee on Foreign Relations,,http://www.foreign.senate.gov/rss/feed/chair/,SSFR,,"International Operations and Organizations, Human Rights, Democracy, and Global Women's Issues",,13,"United States Senate Foreign Relations Subcommittee on International Operations and Organizations, Human Rights, Democracy and Global Women's Issues",SSFR,senate,http://foreign.senate.gov/,United States Senate Committee on Foreign Relations
,,,,http://www.foreign.senate.gov/rss/feed/ranking/,,Senate Committee on Foreign Relations,,http://www.foreign.senate.gov/rss/feed/chair/,SSFR,,Europe and Regional Security Cooperation,,01,United States Senate Foreign Relations Subcommittee on European Affairs,SSFR,senate,http://foreign.senate.gov/,United States Senate Committee on Foreign Relations
,,,,http://www.foreign.senate.gov/rss/feed/ranking/,,Senate Committee on Foreign Relations,,http://www.foreign.senate.gov/rss/feed/chair/,SSFR,,Africa and Global Health Policy,,09,United States Senate Foreign Relations Subcommittee on African Affairs,SSFR,senate,http://foreign.senate.gov/,United States Senate Committee on Foreign Relations
,,,,http://www.foreign.senate.gov/rss/feed/ranking/,,Senate Committee on Foreign Relations,,http://www.foreign.senate.gov/rss/feed/chair/,SSFR,,"East Asia, the Pacific, and International Cybersecurity Policy",,02,United States Senate Foreign Relations Subcommittee on East Asian and Pacific Affairs,SSFR,senate,http://foreign.senate.gov/,United States Senate Committee on Foreign Relations
,,,,http://www.foreign.senate.gov/rss/feed/ranking/,,Senate Committee on Foreign Relations,,http://www.foreign.senate.gov/rss/feed/chair/,SSFR,,"Near East, South Asia, Central Asia, and Counterterrorism",,07,United States Senate Foreign Relations Subcommittee on Near Eastern and South and Central Asian Affairs,SSFR,senate,http://foreign.senate.gov/,United States Senate Committee on Foreign Relations
,,,,http://www.foreign.senate.gov/rss/feed/ranking/,,Senate Committee on Foreign Relations,,http://www.foreign.senate.gov/rss/feed/chair/,SSFR,,"Western Hemisphere, Transnational Crime, Civilian Security, Democracy, Human Rights, and Global Women's Issues",,06,United States Senate Foreign Relations Subcommittee on Western Hemisphere and Global Narcotics Affairs,SSFR,senate,http://foreign.senate.gov/,United States Senate Committee on Foreign Relations
,,,,http://www.foreign.senate.gov/rss/feed/ranking/,,Senate Committee on Foreign Relations,,http://www.foreign.senate.gov/rss/feed/chair/,SSFR,,"Multilateral International Development, Multilateral Institutions, and International Economic, Energy, and Environmental Policy",,15,,SSFR,senate,http://foreign.senate.gov/,United States Senate Committee on Foreign Relations
,,,,http://www.foreign.senate.gov/rss/feed/ranking/,,Senate Committee on Foreign Relations,,http://www.foreign.senate.gov/rss/feed/chair/,SSFR,,"State Department and USAID Management, International Operations, and Bilateral International Development",,14,,SSFR,senate,http://foreign.senate.gov/,United States Senate Committee on Foreign Relations
,,,,,,Senate Committee on Homeland Security and Governmental Affairs,,,SSGA,,Permanent Subcommittee on Investigations,,01,United States Senate Homeland Security Permanent Subcommittee on Investigations,SSGA,senate,http://hsgac.senate.gov/,United States Senate Committee on Homeland Security and Governmental Affairs
,,,,,,Senate Committee on Homeland Security and Governmental Affairs,,,SSGA,,"Emergency Management, Intergovernmental Relations, and the District of Columbia",,17,,SSGA,senate,http://hsgac.senate.gov/,United States Senate Committee on Homeland Security and Governmental Affairs
,,,,,,Senate Committee on Homeland Security and Governmental Affairs,,,SSGA,,Financial and Contracting Oversight,,15,,SSGA,senate,http://hsgac.senate.gov/,United States Senate Committee on Homeland Security and Governmental Affairs
,,,,,,Senate Committee on Homeland Security and Governmental Affairs,,,SSGA,,the Efficiency and Effectiveness of Federal Programs and the Federal Workforce,,16,,SSGA,senate,http://hsgac.senate.gov/,United States Senate Committee on Homeland Security and Governmental Affairs
,,,,,,Senate Committee on Homeland Security and Governmental Affairs,,,SSGA,,Federal Spending Oversight and Emergency Management,,18,,SSGA,senate,http://hsgac.senate.gov/,United States Senate Committee on Homeland Security and Governmental Affairs
,,,,,,Senate Committee on Homeland Security and Governmental Affairs,,,SSGA,,Regulatory Affairs and Federal Management,,19,,SSGA,senate,http://hsgac.senate.gov/,United States Senate Committee on Homeland Security and Governmental Affairs
,,,,http://www.help.senate.gov/rss/feed/ranking/,,"Senate Committee on Health, Education, Labor, and Pensions",,http://www.help.senate.gov/rss/feed/chair/,SSHR,,Employment and Workplace Safety,,11,United States Senate Health Subcommittee on Employment and Workplace Safety,SSHR,senate,http://help.senate.gov/,"United States Senate Committee on Health, Education, Labor, and Pensions"
,,,,http://www.help.senate.gov/rss/feed/ranking/,,"Senate Committee on Health, Education, Labor, and Pensions",,http://www.help.senate.gov/rss/feed/chair/,SSHR,,Primary Health and Retirement Security,,12,United States Senate Health Subcommittee on Primary Health and Aging,SSHR,senate,http://help.senate.gov/,"United States Senate Committee on Health, Education, Labor, and Pensions"
,,,,http://www.help.senate.gov/rss/feed/ranking/,,"Senate Committee on Health, Education, Labor, and Pensions",,http://www.help.senate.gov/rss/feed/chair/,SSHR,,Children and Families,,09,United States Senate Health Subcommittee on Children and Families,SSHR,senate,http://help.senate.gov/,"United States Senate Committee on Health, Education, Labor, and Pensions"
,,,,,,Senate Committee on the Judiciary,,,SSJU,,the Constitution,,21,"United States Senate Judiciary Subcommittee on the Constitution, Civil Rights and Human Rights",SSJU,senate,http://judiciary.senate.gov/,United States Senate Committee on the Judiciary
,,,,,,Senate Committee on the Judiciary,,,SSJU,,Crime and Terrorism,,22,United States Senate Judiciary Subcommittee on Crime and Terrorism,SSJU,senate,http://judiciary.senate.gov/,United States Senate Committee on the Judiciary
,,,,,,Senate Committee on the Judiciary,,,SSJU,,"Privacy, Technology and the Law",,23,"United States Senate Judiciary Subcommittee on Privacy, Technology and the Law",SSJU,senate,http://judiciary.senate.gov/,United States Senate Committee on the Judiciary
,,,,,,Senate Committee on the Judiciary,,,SSJU,,"Antitrust, Competition Policy and Consumer Rights",,01,"United States Senate Judiciary Subcommittee on Antitrust, Competition Policy and Consumer Rights",SSJU,senate,http://judiciary.senate.gov/,United States Senate Committee on the Judiciary
,,,,,,Senate Committee on the Judiciary,,,SSJU,,Immigration and the National Interest,,04,"United States Senate Judiciary Subcommittee on Immigration, Refugees and Border Security",SSJU,senate,http://judiciary.senate.gov/,United States Senate Committee on the Judiciary
,,,,,,Senate Committee on the Judiciary,,,SSJU,,Bankruptcy and the Courts,,24,,SSJU,senate,http://judiciary.senate.gov/,United States Senate Committee on the Judiciary
,,,,,,Senate Committee on the Judiciary,,,SSJU,,"Oversight, Agency Action, Federal Rights and Federal Courts",,25,,SSJU,senate,http://judiciary.senate.gov/,United States Senate Committee on the Judiciary
,,,,,,Senate Committee on Rules and Administration,,http://www.rules.senate.gov/public/?a=RSS.Feed,SSRA,,,,,,SSRA,senate,http://rules.senate.gov/,United States Senate Committee on Rules and Administration
,,,,,,Senate Committee on Small Business and Entrepreneurship,,http://www.sbc.senate.gov/public/?a=RSS.Feed,SSSB,,,,,,SSSB,senate,http://sbc.senate.gov/,United States Senate Committee on Small Business and Entrepreneurship
,,,,http://www.veterans.senate.gov/rankingmember/rss.cfm,,Senate Committee on Veterans' Affairs,,http://www.veterans.senate.gov/rss.cfm,SSVA,,,,,,SSVA,senate,http://veterans.senate.gov/,United States Senate Committee on Veterans' Affairs
